{
"type": "FeatureCollection",
"name": "LandCover",
"crs": { "type": "name", "properties": { "name": "urn:ogc:def:crs:OGC:1.3:CRS84" } },
"xy_coordinate_resolution": 1e-06,
"features": [
{"type":"Feature","properties":{"اسم_المحور":"2","اسم_القطاع":"10","اسم_المسطح":"ابار مياه","مساحة_كم2":0.0040548696523534144,"GlobalID":"{0EB8CD15-7EC3-4542-B68C-BE8AC0D7AD74}","Shape_Length":257.43703621473855,"Shape_Area":4054.8682075838196},"geometry":{"type":"Polygon","coordinates":[[[32.240424,30.443391],[32.240329,30.444065],[32.240456,30.444209],[32.240665,30.444224],[32.240811,30.444115],[32.240906,30.443442],[32.240424,30.443391]]]}},
{"type":"Feature","properties":{"اسم_المحور":"2","اسم_القطاع":"10","اسم_المسطح":"ابار مياه","مساحة_كم2":0.0036741527150772999,"GlobalID":"{791109EB-5FCA-4533-A1B1-5C56A9562DDA}","Shape_Length":246.4786796443822,"Shape_Area":3674.1504659200059},"geometry":{"type":"Polygon","coordinates":[[[32.236691,30.410501],[32.236148,30.410598],[32.236423,30.411214],[32.23693,30.411092],[32.236691,30.410501]]]}},
{"type":"Feature","properties":{"اسم_المحور":"2","اسم_القطاع":"10","اسم_المسطح":"ابار مياه","مساحة_كم2":0.0055900607277873052,"GlobalID":"{F8204B3C-8830-4FBF-9B10-7868396EB9AD}","Shape_Length":315.20103526176081,"Shape_Area":5590.0595344617104},"geometry":{"type":"Polygon","coordinates":[[[32.191905,30.447798],[32.191837,30.448281],[32.192909,30.448393],[32.192977,30.44791],[32.191905,30.447798]]]}},
{"type":"Feature","properties":{"اسم_المحور":"2","اسم_القطاع":"10","اسم_المسطح":"ابار مياه","مساحة_كم2":0.012962611124344256,"GlobalID":"{A0C088BD-8B06-4E52-9756-638ED4AC7F38}","Shape_Length":466.52517122821382,"Shape_Area":12962.616707445661},"geometry":{"type":"Polygon","coordinates":[[[32.19499,30.426812],[32.194685,30.428067],[32.195608,30.428164],[32.195974,30.426947],[32.19499,30.426812]]]}},
{"type":"Feature","properties":{"اسم_المحور":"2","اسم_القطاع":"10","اسم_المسطح":"ابار مياه","مساحة_كم2":0.018726854100706628,"GlobalID":"{2E9F2D44-9AF4-41D0-BACA-CEB4EA163725}","Shape_Length":592.5012804487144,"Shape_Area":18726.85770311231},"geometry":{"type":"Polygon","coordinates":[[[32.195344,30.407287],[32.195147,30.408066],[32.197375,30.408336],[32.19731,30.40745],[32.195344,30.407287]]]}},
{"type":"Feature","properties":{"اسم_المحور":"2","اسم_القطاع":"10","اسم_المسطح":"ابار مياه","مساحة_كم2":0.006210159066450012,"GlobalID":"{AD36EE44-26E9-4330-9BF8-E4817E7DE41A}","Shape_Length":317.47545279981688,"Shape_Area":6210.1637032385961},"geometry":{"type":"Polygon","coordinates":[[[32.167694,30.418068],[32.166642,30.418094],[32.16656,30.418436],[32.166658,30.418595],[32.167665,30.41857],[32.167769,30.418339],[32.167694,30.418068]]]}},
{"type":"Feature","properties":{"اسم_المحور":"2","اسم_القطاع":"10","اسم_المسطح":"ابار مياه","مساحة_كم2":0.00069528017516862933,"GlobalID":"{AD4A4383-F989-4C25-BE79-4B375F93C4FD}","Shape_Length":111.20420165956151,"Shape_Area":695.27947464765452},"geometry":{"type":"Polygon","coordinates":[[[32.180964,30.663946],[32.180963,30.663775],[32.180581,30.663776],[32.180582,30.663947],[32.180964,30.663946]]]}},
{"type":"Feature","properties":{"اسم_المحور":"2","اسم_القطاع":"10","اسم_المسطح":"ابار مياه","مساحة_كم2":0.0010091595948104035,"GlobalID":"{9E56F347-6B38-4BB2-A3AA-FA5E5AE62FA5}","Shape_Length":130.99448878186996,"Shape_Area":1009.1607575710123},"geometry":{"type":"Polygon","coordinates":[[[32.166575,30.663596],[32.166152,30.66363],[32.166176,30.663852],[32.166599,30.663819],[32.166575,30.663596]]]}},
{"type":"Feature","properties":{"اسم_المحور":"2","اسم_القطاع":"10","اسم_المسطح":"ابار مياه","مساحة_كم2":0.00089638220151837505,"GlobalID":"{E659D0A6-3324-4C0D-8215-3D952F4E5F1B}","Shape_Length":121.32521556615424,"Shape_Area":896.38297531841431},"geometry":{"type":"Polygon","coordinates":[[[32.138128,30.657986],[32.138117,30.657668],[32.137851,30.657675],[32.137862,30.657991],[32.138128,30.657986]]]}},
{"type":"Feature","properties":{"اسم_المحور":"2","اسم_القطاع":"10","اسم_المسطح":"ابار مياه","مساحة_كم2":0.012910211181623239,"GlobalID":"{97A86B63-4CDF-46D0-BC3D-FF0211DCAB04}","Shape_Length":455.55236430796504,"Shape_Area":12910.211189396732},"geometry":{"type":"Polygon","coordinates":[[[32.124904,30.654325],[32.123695,30.654351],[32.1238,30.655353],[32.125062,30.655282],[32.124904,30.654325]]]}},
{"type":"Feature","properties":{"اسم_المحور":"2","اسم_القطاع":"10","اسم_المسطح":"ابار مياه","مساحة_كم2":0.0011095798829954861,"GlobalID":"{2D774528-3BCD-4D04-96AE-E367949CFE63}","Shape_Length":146.86953529562786,"Shape_Area":1109.5808392724871},"geometry":{"type":"Polygon","coordinates":[[[32.131807,30.665112],[32.131407,30.665162],[32.13144,30.665355],[32.131625,30.665332],[32.131645,30.665449],[32.131859,30.665422],[32.131807,30.665112]]]}},
{"type":"Feature","properties":{"اسم_المحور":"2","اسم_القطاع":"10","اسم_المسطح":"ابار مياه","مساحة_كم2":0.00059661591391798338,"GlobalID":"{4DA8DA29-1A44-413A-A2E6-0E4293B107E4}","Shape_Length":106.71027087128542,"Shape_Area":596.61621942764316},"geometry":{"type":"Polygon","coordinates":[[[32.124957,30.663482],[32.124947,30.66382],[32.125113,30.663823],[32.125123,30.663486],[32.124957,30.663482]]]}},
{"type":"Feature","properties":{"اسم_المحور":"2","اسم_القطاع":"10","اسم_المسطح":"ابار مياه","مساحة_كم2":0.00089479826282796483,"GlobalID":"{FCF63000-7009-48DE-9F03-9919F6623A81}","Shape_Length":120.00022091098394,"Shape_Area":894.79864135200989},"geometry":{"type":"Polygon","coordinates":[[[32.122782,30.665284],[32.122769,30.665575],[32.123058,30.665584],[32.123071,30.665293],[32.122782,30.665284]]]}},
{"type":"Feature","properties":{"اسم_المحور":"2","اسم_القطاع":"10","اسم_المسطح":"ابار مياه","مساحة_كم2":0.0015865061623955299,"GlobalID":"{86650655-7D4F-4175-8D9C-1A859F614BE7}","Shape_Length":159.39278500248682,"Shape_Area":1586.505041443872},"geometry":{"type":"Polygon","coordinates":[[[32.116517,30.662145],[32.116415,30.662483],[32.11683,30.662575],[32.116931,30.662237],[32.116517,30.662145]]]}},
{"type":"Feature","properties":{"اسم_المحور":"2","اسم_القطاع":"10","اسم_المسطح":"ابار مياه","مساحة_كم2":0.0030382340970897099,"GlobalID":"{3DA5B769-2F45-4F71-9A73-55D258A3B679}","Shape_Length":221.76117083160159,"Shape_Area":3038.2334527005901},"geometry":{"type":"Polygon","coordinates":[[[32.112439,30.651997],[32.112392,30.652569],[32.112941,30.652564],[32.112935,30.652044],[32.112439,30.651997]]]}},
{"type":"Feature","properties":{"اسم_المحور":"2","اسم_القطاع":"10","اسم_المسطح":"ابار مياه","مساحة_كم2":0.0010520352081855979,"GlobalID":"{4A05CC8B-B334-44E2-B1E9-7A103654DA36}","Shape_Length":134.13968475588359,"Shape_Area":1052.0358288936411},"geometry":{"type":"Polygon","coordinates":[[[32.11841,30.656294],[32.118402,30.65652],[32.118841,30.656531],[32.118849,30.656306],[32.11841,30.656294]]]}},
{"type":"Feature","properties":{"اسم_المحور":"2","اسم_القطاع":"10","اسم_المسطح":"ابار مياه","مساحة_كم2":0.00056705787730652402,"GlobalID":"{E68BF5F3-EF7E-45E9-AD0D-DC20EFFDAEAF}","Shape_Length":97.770315637941863,"Shape_Area":567.05978519708617},"geometry":{"type":"Polygon","coordinates":[[[32.117273,30.657656],[32.117273,30.657827],[32.117585,30.657827],[32.117585,30.657656],[32.117273,30.657656]]]}},
{"type":"Feature","properties":{"اسم_المحور":"2","اسم_القطاع":"10","اسم_المسطح":"ترع ومصارف","مساحة_كم2":0.15200786173760161,"GlobalID":"{A40D21A3-E856-4B4C-80A9-E04A16BBDFB6}","Shape_Length":11825.225984402141,"Shape_Area":152007.85823366605},"geometry":{"type":"Polygon","coordinates":[[[32.335371,30.458197],[32.336726,30.458324],[32.338099,30.458019],[32.338962,30.457531],[32.339533,30.456779],[32.341461,30.457272],[32.343413,30.457909],[32.345239,30.457973],[32.345971,30.457628],[32.346679,30.45669],[32.346954,30.456587],[32.347024,30.456333],[32.346486,30.456523],[32.345678,30.457547],[32.345026,30.45776],[32.343461,30.457679],[32.341525,30.457046],[32.33943,30.456513],[32.338849,30.457297],[32.338125,30.457757],[32.336765,30.458088],[32.335449,30.457967],[32.335025,30.458008],[32.333541,30.458742],[32.333236,30.458987],[32.333028,30.459417],[32.332626,30.462346],[32.331705,30.465383],[32.331109,30.466269],[32.328928,30.468041],[32.328662,30.468446],[32.328484,30.46903],[32.328019,30.473359],[32.327762,30.474372],[32.327237,30.475507],[32.324901,30.479243],[32.324183,30.4801],[32.321929,30.482007],[32.316552,30.485834],[32.315981,30.486145],[32.315676,30.486493],[32.315585,30.486898],[32.315794,30.489088],[32.315779,30.490974],[32.315889,30.493083],[32.31616,30.493095],[32.316048,30.490969],[32.316064,30.489083],[32.315854,30.486897],[32.315935,30.486564],[32.316153,30.486324],[32.316719,30.486016],[32.321949,30.482305],[32.32434,30.480295],[32.32506,30.479472],[32.327466,30.475631],[32.328013,30.474459],[32.328286,30.473389],[32.328752,30.469056],[32.32891,30.468536],[32.329123,30.468202],[32.331314,30.46642],[32.331959,30.465461],[32.332909,30.46231],[32.333352,30.459278],[32.333691,30.458935],[32.334925,30.458291],[32.335371,30.458197]]]}},
{"type":"Feature","properties":{"اسم_المحور":"2","اسم_القطاع":"10","اسم_المسطح":"ابار مياه","مساحة_كم2":0.034088251311292395,"GlobalID":"{DD947ED9-7124-4BE3-A55D-F0C48CB3076F}","Shape_Length":739.77608357509325,"Shape_Area":34088.257775232807},"geometry":{"type":"Polygon","coordinates":[[[31.953156,30.375418],[31.95265,30.377061],[31.954382,30.377621],[31.95499,30.376045],[31.953156,30.375418]]]}},
{"type":"Feature","properties":{"اسم_المحور":"2","اسم_القطاع":"10","اسم_المسطح":"ابار مياه","مساحة_كم2":0.066080882005051467,"GlobalID":"{5136F39C-9F0B-4BCA-8ED7-9B18474777AC}","Shape_Length":1053.996161569195,"Shape_Area":66080.884025365012},"geometry":{"type":"Polygon","coordinates":[[[31.956275,30.349892],[31.954528,30.350963],[31.956471,30.353323],[31.958218,30.352252],[31.956275,30.349892]]]}},
{"type":"Feature","properties":{"اسم_المحور":"2","اسم_القطاع":"10","اسم_المسطح":"ابار مياه","مساحة_كم2":0.0048238239863840661,"GlobalID":"{3612DC98-3EA7-4878-91F6-427ACE4579C8}","Shape_Length":296.9791830935049,"Shape_Area":4823.8244772675444},"geometry":{"type":"Polygon","coordinates":[[[31.927113,30.401828],[31.926081,30.401696],[31.926007,30.402119],[31.927039,30.402265],[31.927113,30.401828]]]}},
{"type":"Feature","properties":{"اسم_المحور":"2","اسم_القطاع":"10","اسم_المسطح":"ابار مياه","مساحة_كم2":0.013172972779206173,"GlobalID":"{C0448859-88F6-4527-AC94-C71181706D85}","Shape_Length":460.87853372505816,"Shape_Area":13172.96774258422},"geometry":{"type":"Polygon","coordinates":[[[31.878115,30.430989],[31.877465,30.431992],[31.878453,30.432412],[31.879076,30.431451],[31.878115,30.430989]]]}},
{"type":"Feature","properties":{"اسم_المحور":"2","اسم_القطاع":"10","اسم_المسطح":"ابار مياه","مساحة_كم2":0.0044811354081413452,"GlobalID":"{AAA521A9-E5A4-48CF-9503-B674414C288E}","Shape_Length":283.64557439467143,"Shape_Area":4481.1380154682156},"geometry":{"type":"Polygon","coordinates":[[[31.891148,30.436843],[31.891572,30.436063],[31.891136,30.435886],[31.890712,30.436666],[31.891148,30.436843]]]}},
{"type":"Feature","properties":{"اسم_المحور":"2","اسم_القطاع":"10","اسم_المسطح":"ابار مياه","مساحة_كم2":0.01000850328500495,"GlobalID":"{EBF5B983-79FC-4D8C-A424-428BEC67C09A}","Shape_Length":505.78999658102134,"Shape_Area":10008.492678210614},"geometry":{"type":"Polygon","coordinates":[[[31.920171,30.405668],[31.918044,30.405717],[31.91807,30.40616],[31.920184,30.406111],[31.920171,30.405668]]]}},
{"type":"Feature","properties":{"اسم_المحور":"2","اسم_القطاع":"10","اسم_المسطح":"ابار مياه","مساحة_كم2":0.01143258417775702,"GlobalID":"{EE71739B-540A-4E67-A9AE-5DDB695378E6}","Shape_Length":517.71476030461167,"Shape_Area":11432.587872251581},"geometry":{"type":"Polygon","coordinates":[[[31.91171,30.404883],[31.909606,30.404968],[31.909634,30.405478],[31.911738,30.405392],[31.91171,30.404883]]]}},
{"type":"Feature","properties":{"اسم_المحور":"2","اسم_القطاع":"10","اسم_المسطح":"ابار مياه","مساحة_كم2":0.0095122461707571639,"GlobalID":"{BFBC68AA-0064-46F4-A62B-BB1B35CB52D1}","Shape_Length":494.35996301523414,"Shape_Area":9512.2429668596506},"geometry":{"type":"Polygon","coordinates":[[[31.906413,30.40681],[31.906387,30.40638],[31.904314,30.406462],[31.904337,30.406892],[31.906413,30.40681]]]}},
{"type":"Feature","properties":{"اسم_المحور":"2","اسم_القطاع":"10","اسم_المسطح":"ابار مياه","مساحة_كم2":0.0095968337140530467,"GlobalID":"{29C8E3F7-D13E-4939-9B74-B3DF5AA3E425}","Shape_Length":406.20093330761642,"Shape_Area":9596.8283251317152},"geometry":{"type":"Polygon","coordinates":[[[31.877867,30.448164],[31.876611,30.447786],[31.876372,30.448375],[31.877587,30.448855],[31.877867,30.448164]]]}},
{"type":"Feature","properties":{"اسم_المحور":"2","اسم_القطاع":"10","اسم_المسطح":"ابار مياه","مساحة_كم2":0.010161455500163454,"GlobalID":"{7C05D1C5-A01B-4E19-906C-EBC3B781A7B1}","Shape_Length":403.72683063622969,"Shape_Area":10161.457901446658},"geometry":{"type":"Polygon","coordinates":[[[31.915917,30.375493],[31.915215,30.376216],[31.916031,30.376805],[31.916663,30.376154],[31.915917,30.375493]]]}},
{"type":"Feature","properties":{"اسم_المحور":"2","اسم_القطاع":"10","اسم_المسطح":"ابار مياه","مساحة_كم2":0.009672108696536964,"GlobalID":"{3ACBC044-40B2-46F4-8E70-8E6990446F52}","Shape_Length":393.39134322757286,"Shape_Area":9672.1114219108094},"geometry":{"type":"Polygon","coordinates":[[[31.881535,30.330675],[31.880972,30.331414],[31.881831,30.331901],[31.882393,30.331162],[31.881535,30.330675]]]}},
{"type":"Feature","properties":{"اسم_المحور":"2","اسم_القطاع":"10","اسم_المسطح":"ابار مياه","مساحة_كم2":0.0019205192682257835,"GlobalID":"{6B1E1A48-1118-4467-B96B-1633D28EEBE0}","Shape_Length":175.50048866544864,"Shape_Area":1920.5215625123471},"geometry":{"type":"Polygon","coordinates":[[[31.877263,30.341886],[31.877014,30.342239],[31.877385,30.342435],[31.877635,30.342081],[31.877263,30.341886]]]}},
{"type":"Feature","properties":{"اسم_المحور":"2","اسم_القطاع":"10","اسم_المسطح":"ابار مياه","مساحة_كم2":0.09563810549953404,"GlobalID":"{DF30A6B7-4F09-4083-BF4C-984844DBADE6}","Shape_Length":1907.0599264470411,"Shape_Area":95638.122726875707},"geometry":{"type":"Polygon","coordinates":[[[31.76109,30.402549],[31.758127,30.402751],[31.758137,30.403372],[31.757468,30.40338],[31.75746,30.402922],[31.75394,30.402965],[31.753959,30.404156],[31.757391,30.404156],[31.757474,30.404083],[31.757476,30.403709],[31.757567,30.403652],[31.758146,30.403734],[31.75815,30.404164],[31.761057,30.404207],[31.76109,30.402549]]]}},
{"type":"Feature","properties":{"اسم_المحور":"2","اسم_القطاع":"10","اسم_المسطح":"ابار مياه","مساحة_كم2":0.026464640886480269,"GlobalID":"{301F024F-FA09-4A25-859E-70B109A5FCF4}","Shape_Length":927.55021125242126,"Shape_Area":26464.650362306224},"geometry":{"type":"Polygon","coordinates":[[[31.766283,30.411777],[31.766269,30.412857],[31.767428,30.412868],[31.767435,30.41228],[31.767678,30.412283],[31.76767,30.41287],[31.768825,30.412881],[31.768839,30.411834],[31.767684,30.411823],[31.76767,30.41214],[31.767442,30.412132],[31.767456,30.411815],[31.766283,30.411777]]]}},
{"type":"Feature","properties":{"اسم_المحور":"2","اسم_القطاع":"10","اسم_المسطح":"ابار مياه","مساحة_كم2":0.025584421708534064,"GlobalID":"{F7F45169-417A-4311-954F-7CA159B421CE}","Shape_Length":908.96068144725791,"Shape_Area":25584.426029893304},"geometry":{"type":"Polygon","coordinates":[[[31.761673,30.414991],[31.761673,30.416005],[31.762808,30.416005],[31.762808,30.415616],[31.76306,30.415616],[31.76306,30.416005],[31.764254,30.416005],[31.764254,30.414991],[31.76306,30.414991],[31.76306,30.415452],[31.762808,30.415452],[31.762808,30.414991],[31.761673,30.414991]]]}},
{"type":"Feature","properties":{"اسم_المحور":"2","اسم_القطاع":"10","اسم_المسطح":"بركة","مساحة_كم2":0.082237281325679479,"GlobalID":"{9C493761-FFFC-452D-B1AE-378C592DEF54}","Shape_Length":1185.2530699574049,"Shape_Area":82237.269912673175},"geometry":{"type":"Polygon","coordinates":[[[31.836854,30.325501],[31.83534,30.328659],[31.837916,30.329524],[31.838643,30.326639],[31.836854,30.325501]]]}},
{"type":"Feature","properties":{"اسم_المحور":"2","اسم_القطاع":"10","اسم_المسطح":"بركة","مساحة_كم2":0.18932765822120751,"GlobalID":"{247E3414-6E1C-413C-B086-8C2EDF0B1CCA}","Shape_Length":2346.1920338522245,"Shape_Area":189327.63616787616},"geometry":{"type":"Polygon","coordinates":[[[31.839662,30.328312],[31.83899,30.329359],[31.839759,30.329727],[31.839079,30.330785],[31.838526,30.33052],[31.83825,30.33095],[31.836618,30.330169],[31.835969,30.3319],[31.837385,30.332681],[31.837031,30.333717],[31.838337,30.334705],[31.838883,30.333874],[31.839568,30.334209],[31.841731,30.330916],[31.840703,30.330179],[31.841376,30.329132],[31.839662,30.328312]]]}},
{"type":"Feature","properties":{"اسم_المحور":"2","اسم_القطاع":"10","اسم_المسطح":"ابار مياه","مساحة_كم2":0.00037475315476487412,"GlobalID":"{3484010E-C892-4519-99B1-9096D5274709}","Shape_Length":77.942271785995999,"Shape_Area":374.75424868018968},"geometry":{"type":"Polygon","coordinates":[[[31.682463,30.327716],[31.682305,30.327835],[31.682425,30.327955],[31.682602,30.327823],[31.682463,30.327716]]]}},
{"type":"Feature","properties":{"اسم_المحور":"2","اسم_القطاع":"10","اسم_المسطح":"ابار مياه","مساحة_كم2":0.00029321352726675501,"GlobalID":"{63BD379E-9BCF-4DB9-81CF-E13172B7376D}","Shape_Length":74.439004648665232,"Shape_Area":293.21370827644381},"geometry":{"type":"Polygon","coordinates":[[[31.683282,30.327702],[31.683197,30.327631],[31.683009,30.327798],[31.683093,30.327869],[31.683282,30.327702]]]}},
{"type":"Feature","properties":{"اسم_المحور":"2","اسم_القطاع":"10","اسم_المسطح":"ابار مياه","مساحة_كم2":0.00057391843102739214,"GlobalID":"{3F2239B2-D777-4A70-BB0A-3205D1E116D5}","Shape_Length":96.210688151975404,"Shape_Area":573.91900848983335},"geometry":{"type":"Polygon","coordinates":[[[31.682312,30.326792],[31.682236,30.326978],[31.682493,30.327057],[31.682569,30.326871],[31.682312,30.326792]]]}},
{"type":"Feature","properties":{"اسم_المحور":"2","اسم_القطاع":"10","اسم_المسطح":"ابار مياه","مساحة_كم2":0.00072769946132557751,"GlobalID":"{96D9DCFC-2355-442D-864E-C0FAEC1E37CE}","Shape_Length":109.20873984852378,"Shape_Area":727.69859789848272},"geometry":{"type":"Polygon","coordinates":[[[31.674422,30.325176],[31.674221,30.325367],[31.674403,30.325511],[31.674633,30.325292],[31.674422,30.325176]]]}},
{"type":"Feature","properties":{"اسم_المحور":"2","اسم_القطاع":"10","اسم_المسطح":"ابار مياه","مساحة_كم2":0.00035948438493657153,"GlobalID":"{E95A7687-6F0C-4C78-B3FE-A007CBBECCAB}","Shape_Length":76.5308513196387,"Shape_Area":359.48397001229995},"geometry":{"type":"Polygon","coordinates":[[[31.680891,30.321276],[31.680851,30.321419],[31.681072,30.321466],[31.68111,30.321318],[31.680891,30.321276]]]}},
{"type":"Feature","properties":{"اسم_المحور":"2","اسم_القطاع":"10","اسم_المسطح":"ابار مياه","مساحة_كم2":0.0010355087839525319,"GlobalID":"{BA6A9187-2F8E-42F1-8944-92CD6CF4E7D3}","Shape_Length":128.93320270926642,"Shape_Area":1035.5093662466513},"geometry":{"type":"Polygon","coordinates":[[[31.680409,30.305658],[31.68011,30.305595],[31.680031,30.305899],[31.680359,30.30595],[31.680409,30.305658]]]}},
{"type":"Feature","properties":{"اسم_المحور":"2","اسم_القطاع":"10","اسم_المسطح":"ابار مياه","مساحة_كم2":0.0011431556394191594,"GlobalID":"{028418B2-11BA-4819-97D1-AD1B4331BE1E}","Shape_Length":136.40041811693754,"Shape_Area":1143.1554876499777},"geometry":{"type":"Polygon","coordinates":[[[31.693719,30.295585],[31.693542,30.295804],[31.693872,30.296002],[31.694048,30.295782],[31.693719,30.295585]]]}},
{"type":"Feature","properties":{"اسم_المحور":"2","اسم_القطاع":"10","اسم_المسطح":"ابار مياه","مساحة_كم2":0.00036467215929342304,"GlobalID":"{6B2B3BF7-77EC-4EC5-9DA5-795374691A5B}","Shape_Length":80.888837026997479,"Shape_Area":364.67179849029435},"geometry":{"type":"Polygon","coordinates":[[[31.694065,30.295055],[31.693902,30.295252],[31.694016,30.295323],[31.69418,30.295126],[31.694065,30.295055]]]}},
{"type":"Feature","properties":{"اسم_المحور":"2","اسم_القطاع":"10","اسم_المسطح":"ابار مياه","مساحة_كم2":0.0024276393041984699,"GlobalID":"{5F1DF56C-9A38-497D-ACCB-71634A1A9C15}","Shape_Length":219.75058461627992,"Shape_Area":2427.6408482482116},"geometry":{"type":"Polygon","coordinates":[[[31.784002,30.413683],[31.783992,30.413407],[31.783171,30.413413],[31.783174,30.413689],[31.784002,30.413683]]]}},
{"type":"Feature","properties":{"اسم_المحور":"2","اسم_القطاع":"10","اسم_المسطح":"ابار مياه","مساحة_كم2":0.0047990720688889203,"GlobalID":"{279ADEFB-9E0E-468C-83EB-F922524A01FE}","Shape_Length":281.83521803610756,"Shape_Area":4799.0744977683435},"geometry":{"type":"Polygon","coordinates":[[[31.798594,30.405596],[31.797727,30.405599],[31.797729,30.406118],[31.798597,30.406116],[31.798594,30.405596]]]}},
{"type":"Feature","properties":{"اسم_المحور":"2","اسم_القطاع":"10","اسم_المسطح":"ابار مياه","مساحة_كم2":0.00088154509259301384,"GlobalID":"{B60CAEE2-C044-4EA1-ACE7-DFBF0D43FC96}","Shape_Length":133.54869829741151,"Shape_Area":881.54646899223769},"geometry":{"type":"Polygon","coordinates":[[[31.857428,30.441071],[31.857239,30.441078],[31.857261,30.441516],[31.857449,30.441509],[31.857428,30.441071]]]}},
{"type":"Feature","properties":{"اسم_المحور":"2","اسم_القطاع":"10","اسم_المسطح":"ابار مياه","مساحة_كم2":0.0006121580044295647,"GlobalID":"{251D4DB3-E896-44B9-B151-7DC9512CC1EE}","Shape_Length":108.859153062205,"Shape_Area":612.15828698732798},"geometry":{"type":"Polygon","coordinates":[[[31.812194,30.42754],[31.812191,30.427396],[31.811789,30.427403],[31.811793,30.427547],[31.812194,30.42754]]]}},
{"type":"Feature","properties":{"اسم_المحور":"2","اسم_القطاع":"10","اسم_المسطح":"ابار مياه","مساحة_كم2":0.00070607555876864465,"GlobalID":"{ABCC0F4B-DFD3-4E3D-A356-2A78FD147345}","Shape_Length":106.39119110134619,"Shape_Area":706.07588317729142},"geometry":{"type":"Polygon","coordinates":[[[31.831802,30.436409],[31.831669,30.436608],[31.83192,30.436732],[31.832053,30.436534],[31.831802,30.436409]]]}},
{"type":"Feature","properties":{"اسم_المحور":"2","اسم_القطاع":"10","اسم_المسطح":"ابار مياه","مساحة_كم2":0.0004037992195891781,"GlobalID":"{43406024-E098-468E-BF69-2E851371405D}","Shape_Length":84.100328285574321,"Shape_Area":403.79970418182455},"geometry":{"type":"Polygon","coordinates":[[[31.832897,30.431746],[31.832894,30.431992],[31.833048,30.431994],[31.833052,30.431748],[31.832897,30.431746]]]}},
{"type":"Feature","properties":{"اسم_المحور":"2","اسم_القطاع":"10","اسم_المسطح":"ابار مياه","مساحة_كم2":0.00075941212617191786,"GlobalID":"{908967FC-AE9E-437F-8BD4-662CFE7AD9D6}","Shape_Length":119.24581802689903,"Shape_Area":759.41117788728718},"geometry":{"type":"Polygon","coordinates":[[[31.83516,30.428049],[31.83516,30.428215],[31.835589,30.428215],[31.835589,30.428049],[31.83516,30.428049]]]}},
{"type":"Feature","properties":{"اسم_المحور":"2","اسم_القطاع":"10","اسم_المسطح":"ابار مياه","مساحة_كم2":0.0011062378280204202,"GlobalID":"{76552894-D84C-474C-B06C-99A408BE6A9E}","Shape_Length":133.90394135632607,"Shape_Area":1106.2360682239089},"geometry":{"type":"Polygon","coordinates":[[[31.849977,30.424573],[31.849867,30.424824],[31.85023,30.424942],[31.85034,30.424692],[31.849977,30.424573]]]}},
{"type":"Feature","properties":{"اسم_المحور":"2","اسم_القطاع":"10","اسم_المسطح":"ابار مياه","مساحة_كم2":0.00046336654824135682,"GlobalID":"{049E58F5-6C2F-4A98-905B-DB6C80C25B66}","Shape_Length":89.869946859334419,"Shape_Area":463.36551916503026},"geometry":{"type":"Polygon","coordinates":[[[31.847414,30.424071],[31.847359,30.424207],[31.847644,30.424292],[31.847698,30.424155],[31.847414,30.424071]]]}},
{"type":"Feature","properties":{"اسم_المحور":"2","اسم_القطاع":"10","اسم_المسطح":"ابار مياه","مساحة_كم2":0.00067024452641152349,"GlobalID":"{3C48C5D9-DBBF-4216-9DD8-95AB13C8FB63}","Shape_Length":118.69601919402311,"Shape_Area":670.24289447522619},"geometry":{"type":"Polygon","coordinates":[[[31.850054,30.427879],[31.850024,30.428277],[31.850182,30.428285],[31.850211,30.427888],[31.850054,30.427879]]]}},
{"type":"Feature","properties":{"اسم_المحور":"2","اسم_القطاع":"10","اسم_المسطح":"ابار مياه","مساحة_كم2":0.00050556949129123988,"GlobalID":"{11E63B6B-D2C7-4E43-8C29-8F4DB0A3976C}","Shape_Length":89.967813248052778,"Shape_Area":505.56965957639022},"geometry":{"type":"Polygon","coordinates":[[[31.858034,30.419544],[31.857887,30.419709],[31.858069,30.419829],[31.858215,30.419664],[31.858034,30.419544]]]}},
{"type":"Feature","properties":{"اسم_المحور":"2","اسم_القطاع":"10","اسم_المسطح":"ابار مياه","مساحة_كم2":0.0015616213526098235,"GlobalID":"{304FF7D8-CB78-4CF7-99BC-393CD60E886E}","Shape_Length":165.97980991500174,"Shape_Area":1561.6201733719995},"geometry":{"type":"Polygon","coordinates":[[[31.806117,30.407265],[31.805925,30.407464],[31.80636,30.407775],[31.806552,30.407575],[31.806117,30.407265]]]}},
{"type":"Feature","properties":{"اسم_المحور":"2","اسم_القطاع":"10","اسم_المسطح":"ابار مياه","مساحة_كم2":0.0019254050284577865,"GlobalID":"{C8FAD27D-E402-4CA4-ADA5-D4F4184BA938}","Shape_Length":176.60110102709763,"Shape_Area":1925.4017309758051},"geometry":{"type":"Polygon","coordinates":[[[31.853149,30.346248],[31.852694,30.34645],[31.852882,30.346765],[31.853336,30.346563],[31.853149,30.346248]]]}},
{"type":"Feature","properties":{"اسم_المحور":"2","اسم_القطاع":"10","اسم_المسطح":"ابار مياه","مساحة_كم2":0.0010581566903755816,"GlobalID":"{5AFF1472-DABD-4CD9-A348-E14461623BE8}","Shape_Length":144.89621677108761,"Shape_Area":1058.1574865133744},"geometry":{"type":"Polygon","coordinates":[[[31.849153,30.349489],[31.848651,30.349728],[31.848836,30.349855],[31.849258,30.349654],[31.849153,30.349489]]]}},
{"type":"Feature","properties":{"اسم_المحور":"2","اسم_القطاع":"10","اسم_المسطح":"ابار مياه","مساحة_كم2":0.0020522411612781469,"GlobalID":"{A2EBE5BA-47AA-4DEF-AF29-FDF5C79B3F09}","Shape_Length":185.86551809666406,"Shape_Area":2052.2414071837411},"geometry":{"type":"Polygon","coordinates":[[[31.882375,30.366661],[31.882015,30.366753],[31.882184,30.367244],[31.882545,30.367152],[31.882375,30.366661]]]}},
{"type":"Feature","properties":{"اسم_المحور":"2","اسم_القطاع":"10","اسم_المسطح":"ابار مياه","مساحة_كم2":0.0012743960935658186,"GlobalID":"{A70DFE5B-D33E-4BE9-B124-AB9794E86069}","Shape_Length":143.86991060755625,"Shape_Area":1274.3972792060429},"geometry":{"type":"Polygon","coordinates":[[[31.861374,30.357983],[31.861053,30.35776],[31.860836,30.35798],[31.861174,30.358206],[31.861374,30.357983]]]}},
{"type":"Feature","properties":{"اسم_المحور":"2","اسم_القطاع":"10","اسم_المسطح":"ابار مياه","مساحة_كم2":0.018044387973745035,"GlobalID":"{21DF3602-0188-49D6-861B-E1187D0A2AC1}","Shape_Length":736.67220984289474,"Shape_Area":18044.398735275205},"geometry":{"type":"Polygon","coordinates":[[[32.294011,30.316291],[32.293343,30.315615],[32.292206,30.316454],[32.292392,30.316615],[32.293154,30.317813],[32.293466,30.317998],[32.293715,30.317872],[32.292935,30.317084],[32.294011,30.316291]]]}},
{"type":"Feature","properties":{"اسم_المحور":"2","اسم_القطاع":"10","اسم_المسطح":"ابار مياه","مساحة_كم2":0.017668733970862271,"GlobalID":"{0C033E1C-6DD2-4D0D-AAA9-ACBD68D910B3}","Shape_Length":544.06445653063395,"Shape_Area":17668.735426103824},"geometry":{"type":"Polygon","coordinates":[[[32.223027,30.323773],[32.224775,30.323735],[32.224667,30.32272],[32.223,30.322852],[32.223027,30.323773]]]}},
{"type":"Feature","properties":{"اسم_المحور":"2","اسم_القطاع":"10","اسم_المسطح":"ابار مياه","مساحة_كم2":0.0056142497438230292,"GlobalID":"{033DD1DE-5752-463B-88C5-E1BB43FB24FC}","Shape_Length":277.81889418467671,"Shape_Area":5614.2541238061622},"geometry":{"type":"Polygon","coordinates":[[[32.246197,30.373523],[32.245608,30.373598],[32.245626,30.374116],[32.246376,30.374167],[32.246407,30.373661],[32.246197,30.373523]]]}},
{"type":"Feature","properties":{"اسم_المحور":"2","اسم_القطاع":"10","اسم_المسطح":"ابار مياه","مساحة_كم2":0.024073188559056716,"GlobalID":"{7D3A0C45-B715-4094-9D2A-7798636EFB91}","Shape_Length":694.73257918918875,"Shape_Area":24073.184267995541},"geometry":{"type":"Polygon","coordinates":[[[32.262082,30.396896],[32.262048,30.397115],[32.261697,30.397074],[32.261517,30.39821],[32.263711,30.398467],[32.263789,30.397722],[32.26295,30.39753],[32.262706,30.397305],[32.262667,30.396965],[32.262082,30.396896]]]}},
{"type":"Feature","properties":{"اسم_المحور":"2","اسم_القطاع":"10","اسم_المسطح":"ابار مياه","مساحة_كم2":0.0072129889484315764,"GlobalID":"{600660EB-5343-4AAF-8BA5-C835DE74BD37}","Shape_Length":340.1492808204253,"Shape_Area":7212.9932778159337},"geometry":{"type":"Polygon","coordinates":[[[32.228456,30.372529],[32.227616,30.372519],[32.2276,30.373324],[32.22844,30.373336],[32.228456,30.372529]]]}},
{"type":"Feature","properties":{"اسم_المحور":"2","اسم_القطاع":"10","اسم_المسطح":"ابار مياه","مساحة_كم2":0.035167066880443583,"GlobalID":"{BC5D0BA8-3120-48CD-90F5-6893CA534555}","Shape_Length":1094.078978516698,"Shape_Area":35167.073358378155},"geometry":{"type":"Polygon","coordinates":[[[32.166611,30.369233],[32.166588,30.370214],[32.168792,30.370251],[32.1688,30.369867],[32.169063,30.369871],[32.169055,30.370256],[32.170178,30.370274],[32.1702,30.369293],[32.169077,30.369274],[32.169066,30.369731],[32.168803,30.369727],[32.168814,30.36927],[32.166611,30.369233]]]}},
{"type":"Feature","properties":{"اسم_المحور":"2","اسم_القطاع":"10","اسم_المسطح":"ابار مياه","مساحة_كم2":0.039219911511634821,"GlobalID":"{9F55FDB8-1F84-49FC-9CE5-1E2088E5F803}","Shape_Length":925.88071481491352,"Shape_Area":39219.918554519769},"geometry":{"type":"Polygon","coordinates":[[[32.2301,30.360089],[32.23009,30.35898],[32.229046,30.358973],[32.229056,30.357767],[32.228007,30.357752],[32.227946,30.360108],[32.2301,30.360089]]]}},
{"type":"Feature","properties":{"اسم_المحور":"2","اسم_القطاع":"10","اسم_المسطح":"ابار مياه","مساحة_كم2":0.010753289745811613,"GlobalID":"{892F1C43-E1AA-4985-AE57-FFF74D7205B5}","Shape_Length":415.2904790043757,"Shape_Area":10753.297953208206},"geometry":{"type":"Polygon","coordinates":[[[32.187958,30.355789],[32.186913,30.355814],[32.186943,30.356779],[32.187957,30.356784],[32.187958,30.355789]]]}},
{"type":"Feature","properties":{"اسم_المحور":"2","اسم_القطاع":"10","اسم_المسطح":"ابار مياه","مساحة_كم2":0.009059084751902988,"GlobalID":"{8D1A9696-F86E-47DD-B8A9-D9C16731613E}","Shape_Length":381.20030966624608,"Shape_Area":9059.0825169133095},"geometry":{"type":"Polygon","coordinates":[[[32.172915,30.383575],[32.171873,30.383588],[32.171887,30.384405],[32.172929,30.384391],[32.172915,30.383575]]]}},
{"type":"Feature","properties":{"اسم_المحور":"2","اسم_القطاع":"10","اسم_المسطح":"ابار مياه","مساحة_كم2":0.008916919244579817,"GlobalID":"{DD90CBCE-354A-4E94-BD4D-24DC49F88813}","Shape_Length":377.77420471030013,"Shape_Area":8916.9224262275293},"geometry":{"type":"Polygon","coordinates":[[[32.208215,30.394049],[32.208256,30.393248],[32.207257,30.393209],[32.207214,30.394046],[32.208215,30.394049]]]}},
{"type":"Feature","properties":{"اسم_المحور":"2","اسم_القطاع":"10","اسم_المسطح":"ابار مياه","مساحة_كم2":0.0056224527304984473,"GlobalID":"{2409A1B6-8136-4E42-B555-0703C1FF7031}","Shape_Length":299.93501032096867,"Shape_Area":5622.4448494844319},"geometry":{"type":"Polygon","coordinates":[[[32.226782,30.399139],[32.226005,30.399148],[32.226016,30.399828],[32.226793,30.399819],[32.226782,30.399139]]]}},
{"type":"Feature","properties":{"اسم_المحور":"2","اسم_القطاع":"10","اسم_المسطح":"ابار مياه","مساحة_كم2":0.062863143014861164,"GlobalID":"{F54283E2-1220-4035-B4B1-D63A351EBAFE}","Shape_Length":1054.8929374883276,"Shape_Area":62863.120865517296},"geometry":{"type":"Polygon","coordinates":[[[32.214265,30.3569],[32.212363,30.356897],[32.212363,30.36001],[32.214249,30.360022],[32.214265,30.3569]]]}},
{"type":"Feature","properties":{"اسم_المحور":"2","اسم_القطاع":"10","اسم_المسطح":"ابار مياه","مساحة_كم2":0.0049458028142688511,"GlobalID":"{C2292AEE-0352-4AE4-A409-DBB7EDBC6438}","Shape_Length":281.31284731969487,"Shape_Area":4945.8073658521362},"geometry":{"type":"Polygon","coordinates":[[[32.153783,30.390615],[32.153783,30.391245],[32.15452,30.391245],[32.15452,30.390615],[32.153783,30.390615]]]}},
{"type":"Feature","properties":{"اسم_المحور":"2","اسم_القطاع":"10","اسم_المسطح":"ابار مياه","مساحة_كم2":0.035626649316260375,"GlobalID":"{C74D06BE-7B4C-4B7C-B771-18C7D52A1BAE}","Shape_Length":758.35215246283849,"Shape_Area":35626.638406155755},"geometry":{"type":"Polygon","coordinates":[[[32.137537,30.407475],[32.136198,30.408943],[32.137606,30.409899],[32.138945,30.408431],[32.137537,30.407475]]]}},
{"type":"Feature","properties":{"اسم_المحور":"2","اسم_القطاع":"10","اسم_المسطح":"ابار مياه","مساحة_كم2":0.0062097852178449762,"GlobalID":"{09E50C62-595A-4489-A615-82F2397F50B9}","Shape_Length":315.45256975032117,"Shape_Area":6209.7863611727025},"geometry":{"type":"Polygon","coordinates":[[[32.124016,30.411587],[32.123204,30.411812],[32.123446,30.412463],[32.124259,30.412237],[32.124016,30.411587]]]}},
{"type":"Feature","properties":{"اسم_المحور":"2","اسم_القطاع":"10","اسم_المسطح":"ابار مياه","مساحة_كم2":0.028393573557445369,"GlobalID":"{ADD9F006-4C7E-4D67-9866-976C0F7B0336}","Shape_Length":674.02658248841863,"Shape_Area":28393.574194495559},"geometry":{"type":"Polygon","coordinates":[[[32.084072,30.416756],[32.082381,30.41719],[32.082882,30.418639],[32.084573,30.418205],[32.084072,30.416756]]]}},
{"type":"Feature","properties":{"اسم_المحور":"2","اسم_القطاع":"10","اسم_المسطح":"ابار مياه","مساحة_كم2":0.011939360555720126,"GlobalID":"{7E12C8E0-2AEE-4809-A7F5-DFD76F79131E}","Shape_Length":444.36508972069225,"Shape_Area":11939.35430965681},"geometry":{"type":"Polygon","coordinates":[[[32.109305,30.41729],[32.108953,30.416157],[32.108031,30.416351],[32.108389,30.417502],[32.109305,30.41729]]]}},
{"type":"Feature","properties":{"اسم_المحور":"2","اسم_القطاع":"10","اسم_المسطح":"ابار مياه","مساحة_كم2":0.0014138004460428684,"GlobalID":"{ECE2363C-AA43-4DD3-AE71-3E28C9C2E121}","Shape_Length":152.6768550683027,"Shape_Area":1413.8011181447232},"geometry":{"type":"Polygon","coordinates":[[[32.116165,30.393525],[32.115983,30.393762],[32.116371,30.393984],[32.116554,30.393747],[32.116165,30.393525]]]}},
{"type":"Feature","properties":{"اسم_المحور":"2","اسم_القطاع":"10","اسم_المسطح":"ابار مياه","مساحة_كم2":0.016524906571559122,"GlobalID":"{C2D90110-08D5-4E45-9902-6F6C3E4E4AEF}","Shape_Length":509.06716669286408,"Shape_Area":16524.903254321329},"geometry":{"type":"Polygon","coordinates":[[[32.106682,30.404841],[32.105697,30.405075],[32.105586,30.405178],[32.105938,30.40636],[32.107082,30.406063],[32.106682,30.404841]]]}},
{"type":"Feature","properties":{"اسم_المحور":"2","اسم_القطاع":"10","اسم_المسطح":"ابار مياه","مساحة_كم2":0.0040417489705475108,"GlobalID":"{1FD0FA92-8479-4D42-847B-34A7EC86C182}","Shape_Length":249.4641787927963,"Shape_Area":4041.7452226379924},"geometry":{"type":"Polygon","coordinates":[[[32.116033,30.438164],[32.115884,30.437727],[32.115371,30.437588],[32.115182,30.438109],[32.115765,30.438267],[32.116033,30.438164]]]}},
{"type":"Feature","properties":{"اسم_المحور":"2","اسم_القطاع":"10","اسم_المسطح":"ابار مياه","مساحة_كم2":0.016656687490828707,"GlobalID":"{4F11FB82-BE0F-4EF4-9129-11F9FCE40888}","Shape_Length":517.39064883041874,"Shape_Area":16656.688609450783},"geometry":{"type":"Polygon","coordinates":[[[32.141432,30.42994],[32.140207,30.430184],[32.140532,30.431397],[32.141757,30.431152],[32.141432,30.42994]]]}},
{"type":"Feature","properties":{"اسم_المحور":"2","اسم_القطاع":"10","اسم_المسطح":"بركة","مساحة_كم2":0.054023504147921286,"GlobalID":"{7C74C9F1-EC15-4847-B6D9-CB0BB5B76C9E}","Shape_Length":1126.7224388805696,"Shape_Area":54023.494964521917},"geometry":{"type":"Polygon","coordinates":[[[32.074871,30.494058],[32.073219,30.492857],[32.072936,30.493151],[32.073415,30.493503],[32.071234,30.495709],[32.072421,30.496453],[32.074871,30.494058]]]}},
{"type":"Feature","properties":{"اسم_المحور":"2","اسم_القطاع":"10","اسم_المسطح":"ابار مياه","مساحة_كم2":0.011528492486177462,"GlobalID":"{AD37670C-1CD6-4170-B576-0EB8C6BCFDD4}","Shape_Length":471.93653581350839,"Shape_Area":11528.487192618497},"geometry":{"type":"Polygon","coordinates":[[[32.078434,30.502635],[32.078248,30.503254],[32.079949,30.503584],[32.080118,30.502994],[32.078434,30.502635]]]}},
{"type":"Feature","properties":{"اسم_المحور":"2","اسم_القطاع":"10","اسم_المسطح":"ابار مياه","مساحة_كم2":0.0034724159580344785,"GlobalID":"{6E5A8A2C-2BC4-4011-887B-B2613A72DE40}","Shape_Length":236.02142684816607,"Shape_Area":3472.4174759370262},"geometry":{"type":"Polygon","coordinates":[[[32.11033,30.505492],[32.110231,30.50599],[32.110868,30.506084],[32.110967,30.505587],[32.11033,30.505492]]]}},
{"type":"Feature","properties":{"اسم_المحور":"2","اسم_القطاع":"10","اسم_المسطح":"ابار مياه","مساحة_كم2":0.0073583198050537497,"GlobalID":"{E8A6B6FD-76CC-4F47-B331-78BF74F695EE}","Shape_Length":351.24707824819109,"Shape_Area":7358.32059194254},"geometry":{"type":"Polygon","coordinates":[[[32.117059,30.508244],[32.117319,30.507326],[32.116638,30.507171],[32.116326,30.508094],[32.117059,30.508244]]]}},
{"type":"Feature","properties":{"اسم_المحور":"2","اسم_القطاع":"10","اسم_المسطح":"احواض مياه","مساحة_كم2":0.017683407275967161,"GlobalID":"{BF40DDF6-71EF-4A4C-946D-6BB9EE58289F}","Shape_Length":536.24488029524878,"Shape_Area":17683.407205807045},"geometry":{"type":"Polygon","coordinates":[[[32.065346,30.520708],[32.063828,30.520458],[32.063545,30.521491],[32.065116,30.521746],[32.065346,30.520708]]]}},
{"type":"Feature","properties":{"اسم_المحور":"2","اسم_القطاع":"10","اسم_المسطح":"بركة","مساحة_كم2":0.0026301963025453677,"GlobalID":"{87491081-EE69-451F-A9C8-F60BD82F753E}","Shape_Length":240.06642695067401,"Shape_Area":2630.1962388395691},"geometry":{"type":"Polygon","coordinates":[[[31.551319,30.272716],[31.550981,30.272899],[31.551028,30.273055],[31.551166,30.273073],[31.551073,30.273245],[31.551475,30.273343],[31.551574,30.273191],[31.551483,30.27277],[31.551319,30.272716]]]}}
]
}
