{
"type": "FeatureCollection",
"name": "Axis_Road_Sector",
"crs": { "type": "name", "properties": { "name": "urn:ogc:def:crs:OGC:1.3:CRS84" } },
"features": [
{"type":"Feature","properties":{"GlobalID":"{F0EC82D3-658A-4687-89F9-9411BEA09CD5}","اسم_المحور":"2","طول_المحور_كم":135198.0716348569,"اسم_القطاع":"10","Shape_Length":135198.07156299002},"geometry":{"type":"MultiLineString","coordinates":[[[31.401571301821868,30.142468814943133],[31.415086243779403,30.146304156528263],[31.424825336904416,30.149002848861883],[31.448992243728124,30.155774719503853],[31.479685709201625,30.164029693425888],[31.484801736357863,30.165375635878924],[31.499557943236834,30.167340989737326],[31.523378956846962,30.170326535794057],[31.55155872188848,30.173942632585675],[31.560658029048657,30.174915091454515],[31.568475524558792,30.175940690743477],[31.57913530445904,30.177181553120739],[31.585167360149466,30.177855422030596],[31.588764967207837,30.178184843372279],[31.606021643962954,30.181570174951421],[31.614925229964328,30.183267373727176],[31.644720559284259,30.189453860655906],[31.645813656503673,30.189995881918797],[31.64772225848531,30.191009549754156],[31.661533736054142,30.200521783230016],[31.679475892604998,30.212972007841294],[31.691685574951094,30.221199339391461],[31.692978901668845,30.22207145119323],[31.70009036555151,30.226943581238444],[31.714461893246835,30.237039793971366],[31.717685275218816,30.239188514523633],[31.736079357961547,30.25172566211301],[31.776865796258491,30.279657205479147],[31.745811507572245,30.258421355258445],[31.761811138287719,30.269438119777817],[31.779312970917861,30.281367850543148],[31.780611058416504,30.282317840628998],[31.781963826542139,30.283186567670171],[31.801710163398294,30.29656294448279],[31.806518899053412,30.300099859597601],[31.810695105776649,30.302819772299006],[31.813248080103801,30.304660135176331],[31.816229558194649,30.306597343974161],[31.824983074147667,30.312695927324061],[31.830135933090624,30.316322515502137],[31.834602611397322,30.319410110563215],[31.84031267557771,30.323237307221213],[31.864540683770215,30.339743105929841],[31.867692823812025,30.341988315099449],[31.869928351817169,30.343321798333903],[31.871751193125569,30.344268360317855],[31.874617295370552,30.345708094998127],[31.881669029009323,30.349076985013109],[31.888936068716678,30.352675109432745],[31.898334095355857,30.357392983667456],[31.905827756840761,30.361218570040545],[31.909322394961613,30.362812801088051],[31.913486477144712,30.364823866365946],[31.915299998877678,30.365757496427939],[31.917316362915457,30.366681942640703],[31.918474150289981,30.367246595663094],[31.919319778234279,30.367631972089686],[31.929090704441581,30.372540413546531],[31.93407017245541,30.374949530347781],[31.939255482578904,30.377505857415294],[31.950487605532775,30.383060419736839],[31.983000838655197,30.399322696222132],[31.993764920417696,30.404435449890283],[32.005262991423422,30.41005928434614],[32.029147355544147,30.421977264427266],[32.040765548636102,30.427903573184068],[32.047292706143416,30.431404697193738],[32.050717227757985,30.43588449493285],[32.056404657622004,30.446744385895002],[32.059749117278599,30.453251991478158],[32.061259794849349,30.455769550376683],[32.062262451203146,30.457303522071161],[32.065193467790017,30.459717240547],[32.06999188023125,30.463082742728222],[32.076084102162497,30.467588544212184],[32.081955898354693,30.471645341016309],[32.091539559278857,30.478557353703838],[32.095736509338067,30.481360249314523],[32.099291377440608,30.483847417123126],[32.102935443810061,30.486572368014567],[32.1069529918447,30.489462660452435],[32.122507339224001,30.500532193338511],[32.133461059387898,30.508442703919137],[32.144779102910825,30.516585243436854],[32.153430256541839,30.522727795518961],[32.160803429060685,30.52789194018937],[32.169222156655508,30.534027404211031],[32.172864761387352,30.536897532481326],[32.174096678363611,30.537751564541576],[32.174869600372737,30.539236518941621],[32.175092882678022,30.540797940914075],[32.175403497832043,30.542508555923792],[32.175908036392102,30.543324810422963],[32.177263922242574,30.544410689451684],[32.179289799661802,30.545708723443266],[32.183762368000096,30.54859217441134],[32.189046077281418,30.552224456817665],[32.193320434498837,30.555240038944063],[32.195137515677921,30.556827870064623],[32.196016235320009,30.559210288979653],[32.19600529444611,30.56097713692369],[32.195841360693784,30.562604327303927],[32.195681715755363,30.564992816127585],[32.195379265479289,30.570647382231186],[32.196028223011432,30.577423365911283],[32.19758825049864,30.584042410100807],[32.199103388527149,30.58882991390665],[32.200461759531407,30.593845464422596],[32.200954735519517,30.5947270470352],[32.201913375613543,30.595715952744591],[32.206353515852825,30.599725982734935],[32.211476386106256,30.604500193902641],[32.218789509070433,30.610951390743754],[32.22349111755581,30.614862638345102],[32.225404816545563,30.616037021077773],[32.229911910412405,30.617767096377921],[32.23025328665863,30.61787324444996],[32.230598444779005,30.617969812933246],[32.230947025478173,30.618056701301366],[32.231298665893782,30.618133819099437],[32.231652999976426,30.618201086049108],[32.232009658869714,30.618258432122008],[32.23236827129459,30.618305797620788],[32.246097784614967,30.62017917920388]],[[32.006973039860974,30.410857889897542],[32.010770662393583,30.40487735959864],[32.015549604398529,30.397438822995781],[32.016476766425356,30.396268507292223],[32.017284504340601,30.395360461123499],[32.01846840867664,30.394387353670446],[32.019697567403469,30.393603175834098],[32.022139188774098,30.392295426381391],[32.023648873565755,30.39177027824617],[32.025396233481374,30.391337588486632],[32.028992743557389,30.391088172122149],[32.040413397202101,30.390408381329138],[32.067383528407298,30.38876611110711],[32.080827578445856,30.387915750327981],[32.081639409545261,30.387961879766561],[32.089623521442057,30.388701453667732],[32.124171175472952,30.392121158847996],[32.159982857365065,30.395592340300343],[32.201119696579951,30.400191383005392],[32.240785788098741,30.404627724669041],[32.26914572629115,30.407932777793256]]]}}
]
}
