{
"type": "FeatureCollection",
"name": "Metro_Station",
"crs": { "type": "name", "properties": { "name": "urn:ogc:def:crs:OGC:1.3:CRS84" } },
"features": [
{"type":"Feature","properties":{"اسم_المحطة":"كلية البنات"},"geometry":{"type":"Point","coordinates":[31.328867547688006,30.083855897950794]}},
{"type":"Feature","properties":{"اسم_المحطة":"أرض المعارض"},"geometry":{"type":"Point","coordinates":[31.301147899865921,30.073328999766751]}},
{"type":"Feature","properties":{"اسم_المحطة":"العباسية"},"geometry":{"type":"Point","coordinates":[31.284098723820165,30.072779294611735]}},
{"type":"Feature","properties":{"اسم_المحطة":"عبده باشا"},"geometry":{"type":"Point","coordinates":[31.275248265073021,30.064895380904645]}},
{"type":"Feature","properties":{"اسم_المحطة":"الجيش"},"geometry":{"type":"Point","coordinates":[31.267962900497302,30.062269299975775]}},
{"type":"Feature","properties":{"اسم_المحطة":"باب الشعرية"},"geometry":{"type":"Point","coordinates":[31.255989035480138,30.054292709173424]}},
{"type":"Feature","properties":{"اسم_المحطة":"الاهرام"},"geometry":{"type":"Point","coordinates":[31.326524777071505,30.091335529599029]}},
{"type":"Feature","properties":{"اسم_المحطة":"الإستاد"},"geometry":{"type":"Point","coordinates":[31.317409274933752,30.072930000986826]}},
{"type":"Feature","properties":{"اسم_المحطة":"جمال عبد ناصر"},"geometry":{"type":"Point","coordinates":[31.240401292159461,30.052985530193176]}},
{"type":"Feature","properties":{"اسم_المحطة":"صفاء حجازي"},"geometry":{"type":"Point","coordinates":[31.221898472328736,30.06273890383984]}},
{"type":"Feature","properties":{"اسم_المحطة":"ماسبيرو"},"geometry":{"type":"Point","coordinates":[31.232197388607368,30.055531611982524]}},
{"type":"Feature","properties":{"اسم_المحطة":"الكيت كات"},"geometry":{"type":"Point","coordinates":[31.209425375055691,30.06821735010017]}},
{"type":"Feature","properties":{"اسم_المحطة":"وادى النيل"},"geometry":{"type":"Point","coordinates":[31.201031067586207,30.058407347860108]}},
{"type":"Feature","properties":{"اسم_المحطة":"جامعة الدول العربية"},"geometry":{"type":"Point","coordinates":[31.198658902218302,30.049764215243748]}},
{"type":"Feature","properties":{"اسم_المحطة":"بولاق الدكرور"},"geometry":{"type":"Point","coordinates":[31.195283800630392,30.037827742012318]}},
{"type":"Feature","properties":{"اسم_المحطة":"امبابة"},"geometry":{"type":"Point","coordinates":[31.207507378117135,30.075878547963921]}},
{"type":"Feature","properties":{"اسم_المحطة":"السودان"},"geometry":{"type":"Point","coordinates":[31.204722653215395,30.070026403434298]}},
{"type":"Feature","properties":{"اسم_المحطة":"البوهى"},"geometry":{"type":"Point","coordinates":[31.210537771790641,30.082152436634431]}},
{"type":"Feature","properties":{"اسم_المحطة":"القومية العربية"},"geometry":{"type":"Point","coordinates":[31.208954375627226,30.093186608861693]}},
{"type":"Feature","properties":{"اسم_المحطة":"الدائرى"},"geometry":{"type":"Point","coordinates":[31.199543188786858,30.096366312203202]}},
{"type":"Feature","properties":{"اسم_المحطة":"محور روض الفرج"},"geometry":{"type":"Point","coordinates":[31.184183084056329,30.101998798755819]}},
{"type":"Feature","properties":{"اسم_المحطة":"العتبة"},"geometry":{"type":"Point","coordinates":[31.248706149508461,30.053004917615251]}},
{"type":"Feature","properties":{"اسم_المحطة":"جامعة القاهرة"},"geometry":{"type":"Point","coordinates":[31.201416770343581,30.024803079454895]}},
{"type":"Feature","properties":{"اسم_المحطة":"التوفيقية"},"geometry":{"type":"Point","coordinates":[31.202032384884291,30.064993202833136]}},
{"type":"Feature","properties":{"اسم_المحطة":"الالف مسكن"},"geometry":{"type":"Point","coordinates":[31.339901519815012,30.118098016179896]}},
{"type":"Feature","properties":{"اسم_المحطة":"نادى الشمس"},"geometry":{"type":"Point","coordinates":[31.348752864412486,30.125443195913814]}},
{"type":"Feature","properties":{"اسم_المحطة":"هارون"},"geometry":{"type":"Point","coordinates":[31.333772142165802,30.102001884156774]}},
{"type":"Feature","properties":{"اسم_المحطة":"هليوبوليس"},"geometry":{"type":"Point","coordinates":[31.338260845534617,30.108316523821465]}},
{"type":"Feature","properties":{"اسم_المحطة":"النزهة"},"geometry":{"type":"Point","coordinates":[31.36050009957696,30.128107096434061]}},
{"type":"Feature","properties":{"اسم_المحطة":"هشام بركات"},"geometry":{"type":"Point","coordinates":[31.373028586458179,30.130935286158699]}},
{"type":"Feature","properties":{"اسم_المحطة":"قباء"},"geometry":{"type":"Point","coordinates":[31.383993375119672,30.134742144169074]}},
{"type":"Feature","properties":{"اسم_المحطة":"عمر بن الخطاب"},"geometry":{"type":"Point","coordinates":[31.394445748033231,30.140406391828513]}},
{"type":"Feature","properties":{"اسم_المحطة":"الهايكستب"},"geometry":{"type":"Point","coordinates":[31.404803463153222,30.143864603607831]}},
{"type":"Feature","properties":{"اسم_المحطة":"عدلي منصور"},"geometry":{"type":"Point","coordinates":[31.421520247488456,30.146956836723845]}}
]
}
