{
"type": "FeatureCollection",
"name": "Metro_Line",
"crs": { "type": "name", "properties": { "name": "urn:ogc:def:crs:OGC:1.3:CRS84" } },
"features": [
{"type":"Feature","properties":{"Shape_Length":34664.358357935911},"geometry":{"type":"MultiLineString","coordinates":[[[31.427160860930375,30.146415716673175],[31.427120152097263,30.14649353329029],[31.427073991244136,30.146568243893558],[31.427022612800503,30.146639467821757],[31.426966280003921,30.146706840999581],[31.4269052806624,30.146770021300739],[31.426839926202291,30.146828683123022],[31.426766483272093,30.146883159756676],[31.426689321229926,30.146932226856638],[31.426608836546503,30.14697563021819],[31.426525445939131,30.14701314836185],[31.42643957818219,30.147044585217181],[31.426351676039541,30.14706977916882],[31.426262193164611,30.147088602117122],[31.426171590005346,30.147100955820029],[31.426080333717842,30.147106777305773],[31.425988895109285,30.147106035227132],[31.42589774545192,30.147098734334577],[31.425811241911493,30.147098737052012],[31.425724772582676,30.147096258877966],[31.425136799295728,30.147078758713722],[31.424548884388951,30.147059367263967],[31.42379980340873,30.147041014180186],[31.422785033310532,30.147022480256275],[31.418853109775331,30.146818369123341],[31.418579727779175,30.146804552811254],[31.41820591127572,30.146785751226723],[31.417897817778332,30.146759487862195],[31.41763728941552,30.146727411941981],[31.417456090891687,30.146694855744357],[31.417169011275575,30.146638433101586],[31.416918218010725,30.146579987073714],[31.416507118343564,30.146465189670177],[31.416116698278284,30.14635789572516],[31.415655707859422,30.14622762506843],[31.415344816320413,30.146145751252103],[31.415019944061946,30.146058837415939],[31.414763480536156,30.145998612656072],[31.414447217620587,30.14593974286818],[31.414157949461853,30.145902791616503],[31.413851054428665,30.14588752835586],[31.413404072188584,30.145875233789319],[31.413071219855286,30.145866686270761],[31.412736468232868,30.145853183139668],[31.412411770831397,30.145839382130774],[31.412102998387631,30.145819386750631],[31.411875409901302,30.145801582130456],[31.41160422548732,30.145760829919535],[31.411396606074234,30.145732857599455],[31.411137201362529,30.145684954892936],[31.41087794350879,30.145627778144217],[31.410563747464249,30.145555811439873],[31.410065387293741,30.145417559211221],[31.408760470060692,30.145047377408222],[31.407142257721187,30.144553695923509],[31.405616867877075,30.144103920628694],[31.403838451976288,30.143580674068016],[31.403027404340758,30.143340650365172],[31.402502731355664,30.14318984203047],[31.402021997660142,30.143050488558949],[31.401713400037877,30.142947985923218],[31.401471726277528,30.142866165608108],[31.401253553469665,30.142772782575271],[31.401025170887024,30.142665579305667],[31.400778934066071,30.142541717908053],[31.400592212763623,30.142437112992219],[31.400413236292312,30.142342217658399],[31.400224884361883,30.142225742903349],[31.400023381903186,30.142101945387573],[31.399808847532569,30.141980397734532],[31.399632460814477,30.141898097895329],[31.399424911366875,30.141804290151804],[31.399207148859588,30.141720482748397],[31.399017968996155,30.141657628692325],[31.398681197018995,30.141564091294548],[31.397989313057742,30.141373144937877],[31.397194654472759,30.141153374840972],[31.39642588165508,30.140935130724408],[31.395444420508532,30.140675283590703],[31.394739485078855,30.14048773377602],[31.393478898747574,30.140138646320562],[31.392072637736803,30.139745900953326],[31.391754784432976,30.139635431189944],[31.39139904389949,30.139497767663403],[31.391069201803152,30.13934344456252],[31.390836141633947,30.139222207684405],[31.390587439899548,30.139077330569346],[31.3903740422287,30.138940547977413],[31.390164921724377,30.138799115810972],[31.389971506903123,30.138660236298925],[31.389795314995862,30.1385089721927],[31.389500575026808,30.138271038108169],[31.389223083628906,30.138052038845224],[31.388842168045962,30.137728768897286],[31.387988360433951,30.137037122641733],[31.38696862269062,30.136199755606281],[31.38669706909112,30.135982654871881],[31.38651782689432,30.135856327319996],[31.386335664282125,30.135738409720251],[31.386169992506705,30.13563024598901],[31.386007903211585,30.135538993923547],[31.385801571761466,30.135425306888205],[31.385518043514441,30.135291822692327],[31.385281122788939,30.135187792695987],[31.385068048144312,30.135107421577533],[31.384808054956249,30.135020917565612],[31.382773408234758,30.13432467405638],[31.381569956164338,30.133905440332317],[31.377374842013925,30.1324349481669],[31.375565254629969,30.131809080771017],[31.371330047191123,30.130350162964231],[31.368116901467406,30.129228618400052],[31.367758807177349,30.129122596400887],[31.367454769595607,30.129043651234049],[31.367196158099745,30.12898494506139],[31.366956675739299,30.128930769297199],[31.36672224757714,30.128891466582651],[31.366467039255852,30.128844997180849],[31.366210842026653,30.128804324633414],[31.365953789374529,30.128769471347059],[31.365445849145772,30.128723888871772],[31.36493606773255,30.12870496584182],[31.364374403433871,30.128677958910998],[31.364099603780645,30.128662049406831],[31.363805955408807,30.128636855650544],[31.363477346960295,30.128611514159594],[31.363199433052593,30.128571935586208],[31.362515669388351,30.128471760754405],[31.361818932442073,30.128356645109225],[31.361163658770081,30.128229193439012],[31.359783511511722,30.127975237914189],[31.358813011971687,30.127784050402866],[31.358282255090067,30.127679781734098],[31.357408618222838,30.127509378732928],[31.354624905527896,30.126989048312613],[31.353610255816889,30.126807014708383],[31.353319860228577,30.126766482041123],[31.353052600661787,30.126737509073561],[31.352778011217747,30.126704293214182],[31.352502827869248,30.126676414303219],[31.352220178182741,30.126650447727275],[31.351866428954629,30.126593116060576],[31.351513607525415,30.126530321106099],[31.351161799826542,30.12646207929021],[31.350811088690445,30.126388406098943],[31.350633203528655,30.12634001014295],[31.350457075601032,30.126285569253756],[31.35028290834601,30.126225147348883],[31.350110905110324,30.126158813759147],[31.349941266998361,30.12608664771296],[31.349774190901588,30.126008731995658],[31.349609871483892,30.125925158387922],[31.34944850331679,30.125836024083561],[31.349290270502301,30.125741431559021],[31.348096865484379,30.125079142358782],[31.347388329505332,30.124686145805171],[31.346365654980087,30.124074794263255],[31.346097105470356,30.123892791917747],[31.345604683471894,30.123530305906357],[31.3451093187144,30.123171850200329],[31.344611046062909,30.122817448664534],[31.344198264667295,30.122542426667941],[31.343789347391485,30.1222616939659],[31.343384371250743,30.121975302092888],[31.342908413228983,30.12161248535568],[31.342436448702138,30.121244486999885],[31.341968535049745,30.120871352905983],[31.341575740479126,30.120546301678804],[31.341186415809311,30.120217101283863],[31.340800607126596,30.119883789326739],[31.340723307432707,30.119817848309644],[31.340646361148224,30.119740771567706],[31.34057407249621,30.119659312745956],[31.340506689004496,30.119573751070412],[31.340444445474883,30.119484381846853],[31.340387552629526,30.119391512708049],[31.340336210585299,30.119295464686196],[31.340247769710022,30.119085657806369],[31.340164518501769,30.118873738428952],[31.340086505647839,30.11865983439646],[31.340013779788915,30.118444076256988],[31.339946384406353,30.118226592688405],[31.339861282294915,30.117982700861781],[31.339781534276408,30.117622334143611],[31.339707193491151,30.11726081318746],[31.339638277230463,30.116898217618058],[31.339574799581584,30.116534632432497],[31.33940924530086,30.115454495931314],[31.339167594438631,30.113861408984114],[31.339113261170791,30.113541030904226],[31.339109975732377,30.113523217617352],[31.339106667362646,30.113505410356165],[31.33910333702368,30.113487613644072],[31.33909998700199,30.113469814878425],[31.33909662240999,30.113452018635172],[31.339093243202409,30.113434227620488],[31.339089852522175,30.11341644006961],[31.339086454534677,30.113398655133],[31.339083053390233,30.113380872863122],[31.339079648051261,30.113363093246839],[31.33875711579455,30.111679066233265],[31.338753707716648,30.111661270331975],[31.338750301699832,30.111643475358928],[31.33874690088696,30.111625679549359],[31.338743506270301,30.111607885622554],[31.33874011891761,30.111590091787576],[31.338736742979094,30.111572298096874],[31.33873337950741,30.111554503661498],[31.338730030562569,30.11153670940983],[31.33872669826496,30.111518912661857],[31.3387233846444,30.111501116150077],[31.338689612271136,30.111312861771573],[31.338658125005615,30.111124307869584],[31.338659153454358,30.111124182834978],[31.338649225284922,30.111061668036079],[31.338639523689533,30.110999133546152],[31.338630022864894,30.110936570918472],[31.338620697833957,30.11087398434838],[31.338611522642577,30.110811374409813],[31.338602473351386,30.110748745311227],[31.338593522923514,30.110686100319604],[31.338584647540511,30.11062343642687],[31.338575822029362,30.110560769555182],[31.338567021564383,30.110498094879205],[31.338507594999985,30.110074672151395],[31.338075282488273,30.106994303758352],[31.338052915273593,30.106834921332677],[31.338045239856527,30.106780391075077],[31.338037434924317,30.106725849253099],[31.338029370607828,30.10667130505038],[31.338020921082553,30.106616774017525],[31.338011956313814,30.106562275260867],[31.338002351469864,30.106507827050265],[31.337991978500987,30.106453453930641],[31.33798071237965,30.106399185898631],[31.337968428078593,30.10634505295085],[31.33795501886388,30.106291170127452],[31.337848644208432,30.105973858225457],[31.337698812135113,30.105670097591549],[31.337507730876894,30.105384372283744],[31.337278223324805,30.105120892607889],[31.337250804687116,30.105093459754965],[31.337222985197045,30.10506629340097],[31.337194848785469,30.105039400924017],[31.337166439510341,30.105012754009518],[31.337137801490002,30.104986320734653],[31.337108976752681,30.104960070052364],[31.337080007387051,30.104933967307456],[31.337050933346358,30.10490798142672],[31.337021794674492,30.104882075924561],[31.336992634437141,30.104856219767289],[31.334317038772451,30.102484844657894],[31.333227247805052,30.101518917913573],[31.332995861820304,30.101313826550584],[31.332981331727016,30.101300947402056],[31.332966806824718,30.101288068317889],[31.332952289248883,30.101275185716144],[31.332937780052099,30.101262298707933],[31.332923282361829,30.101249406430693],[31.332908800403604,30.101236504426762],[31.332894340326337,30.101223597285497],[31.332879895079937,30.101210672285834],[31.332865470828505,30.101197733115022],[31.332851060506769,30.101184767954081],[31.332557883061256,30.10092443499704],[31.33242477027639,30.100780594703089],[31.332411166498648,30.100767001840641],[31.332397585866413,30.100753390323323],[31.332384025252189,30.100739761013692],[31.332370474342181,30.100726110171799],[31.332356943268412,30.100712452362355],[31.332343423807107,30.100698782969701],[31.332329912830797,30.100685102856389],[31.332316408204004,30.100671415604292],[31.332302905731549,30.100657723866977],[31.332289406465978,30.100644026755507],[31.332167064198572,30.100519901914048],[31.331875765482504,30.100224359169715],[31.331699317504771,30.100045340153262],[31.331685820434043,30.100031645717376],[31.331672321292153,30.100017951253871],[31.331658820079088,30.100004256762727],[31.331645316764551,30.099990564048081],[31.331631811363707,30.09997687220789],[31.331618300749085,30.099963182104641],[31.331604786995563,30.09994949376474],[31.331591267982816,30.099935809867969],[31.331577743756299,30.09992212770819],[31.331564214255412,30.099908450893608],[31.331325676146175,30.099669114591478],[31.331085213634072,30.099431240344003],[31.331071460369753,30.099417734773457],[31.331057698749103,30.09940423270438],[31.331043932906681,30.099390735091557],[31.331030163895068,30.09937724104612],[31.331016390692003,30.099363749652817],[31.331002615357178,30.099350261840076],[31.330988837905743,30.099336776705847],[31.330975059390287,30.099323293361195],[31.33096127878855,30.099309810890933],[31.330947499212797,30.099296329334592],[31.330158483840442,30.098493789832474],[31.329589163204432,30.097936824982455],[31.329217088464393,30.097598062650658],[31.328863497899182,30.097239534166459],[31.328850079426406,30.097225777295101],[31.328836668249501,30.097212018710742],[31.328823261316955,30.097198254765551],[31.328809858568068,30.097184489067768],[31.328796460048355,30.097170718911215],[31.328783062615269,30.097156946060409],[31.328769669396195,30.097143169652909],[31.328756276180801,30.097129393244131],[31.328742884036863,30.097115615043204],[31.328729491911787,30.097101835938943],[31.327623213004458,30.095963518229386],[31.327609828343256,30.095949745427344],[31.327596440588771,30.095935971682355],[31.327583050732812,30.095922199713847],[31.32756965671582,30.095908428593294],[31.327556258492205,30.095894661026914],[31.327542852965003,30.095880896073005],[31.327529442193807,30.095867134660079],[31.327516021983488,30.095853379441433],[31.327502592379631,30.095839627710934],[31.327489153321473,30.095825883076788],[31.327424246822527,30.095759761358295],[31.32735909767468,30.095693820579783],[31.327345550331753,30.095680162071648],[31.327331990483152,30.095666507011984],[31.327318423255033,30.095652859075059],[31.32730484761003,30.095639218247666],[31.327291268780616,30.095625581889664],[31.327277683639473,30.09561195086351],[31.327264097403869,30.09559832343108],[31.327250506976881,30.09558469865069],[31.327236915470628,30.095571076562017],[31.327223323922521,30.095557457178217],[31.326526348318588,30.094859014428245],[31.326492379511482,30.094824951934502],[31.326458503692212,30.094790852722276],[31.326435542897947,30.094767561724499],[31.326424799575708,30.094756663659133],[31.32639134072037,30.09472232974251],[31.326358204803668,30.094687797826907],[31.32632546843525,30.094653016557782],[31.326293210299454,30.094617934607143],[31.326261512086258,30.094582507001096],[31.326230456568595,30.094546686072853],[31.326200080658328,30.094510374849641],[31.326019101206295,30.094257391615105],[31.325876233713362,30.093986591590674],[31.325773758377675,30.093702294176424],[31.32570575606216,30.09344743362686],[31.325671401843199,30.093112664177259],[31.325701520035146,30.092804098656135],[31.325769586526164,30.092527219433187],[31.325875959269901,30.092229925754154],[31.325988084344072,30.092038248404958],[31.326151894780871,30.091798757602866],[31.326358642773204,30.091533656280109],[31.32657724218635,30.091272960592132],[31.32680227105293,30.090998967736738],[31.327056861434183,30.090681552679346],[31.327174794790999,30.090541324395414],[31.328301376130071,30.089138832175028],[31.328696211487252,30.088658420691537],[31.328914680141356,30.088384139161718],[31.329061514249318,30.088201366163194],[31.329175119061532,30.088037834191198],[31.329266467903814,30.087878043160615],[31.329381051768731,30.087695916191816],[31.329463761539227,30.087524523104499],[31.329559146258127,30.0872888943181],[31.329621848904797,30.087140211881817],[31.329668260139172,30.086954505697619],[31.329703666096893,30.086814173938038],[31.329726391786338,30.086713077118514],[31.329748246745901,30.086596315063069],[31.329755919361553,30.086526124065717],[31.329762022817576,30.08643268902162],[31.32977519872799,30.086227547907402],[31.329761303518634,30.085873306615259],[31.32974950848747,30.085632685284963],[31.329695595482949,30.085362169081598],[31.329611977490728,30.085159522856877],[31.329540354560233,30.08498235093111],[31.329433557194214,30.084734177043639],[31.329283477783918,30.084456722157789],[31.329132078662045,30.084197951414733],[31.328932158012087,30.083811724103136],[31.328753427807204,30.083498015182467],[31.328611171872151,30.083273710906216],[31.328450108813634,30.083014210180622],[31.328371350321959,30.08286862693819],[31.328272372675965,30.082707321723859],[31.328176486147672,30.082567097309454],[31.327967169705307,30.082295194085649],[31.327365525037958,30.081309567748072],[31.327247620796811,30.081096686061432],[31.32717563434327,30.080952550761889],[31.327110118364782,30.080817864132833],[31.327047660579897,30.080702491328857],[31.326985288256576,30.080521034658211],[31.326926352395059,30.080306222857452],[31.326882310914243,30.080092546239658],[31.326830355669735,30.079852450898994],[31.326750464870969,30.079479223643322],[31.326692737821357,30.079187184879274],[31.326581179507041,30.078851659300099],[31.3265011387866,30.078641903668338],[31.326379322805256,30.078393915127489],[31.326258795304106,30.078194201027571],[31.326147434568064,30.078030794030369],[31.325957337932469,30.07779169328683],[31.325781698892079,30.077601603033738],[31.325613328728949,30.077427643699757],[31.325344339754615,30.077209385043986],[31.325002067018378,30.076964600179497],[31.324699108713066,30.076796133225702],[31.324271660109559,30.076564674206335],[31.322152144158192,30.07547578860089],[31.317458227291155,30.072957519444902],[31.317300532293213,30.072868873070917],[31.317139657613026,30.072786136176084],[31.316139261577575,30.072226237002923],[31.315578054071331,30.071951345291332],[31.315138030612392,30.071790224701562],[31.314748040975232,30.071677218227972],[31.314439905949239,30.071611179822096],[31.314230228366647,30.071572861357964],[31.314041651433204,30.071543491137788],[31.313923753079621,30.071530171759271],[31.313856114409042,30.07152871934392],[31.313782175299508,30.071521859143594],[31.313676145494028,30.071510182343722],[31.313551689165674,30.071513677729094],[31.313393463766243,30.07149957243135],[31.313197998987906,30.071503052148167],[31.313053754678265,30.071505111136421],[31.312859655842367,30.071516063215306],[31.312702397822008,30.071533717153414],[31.312531510496093,30.07155195289943],[31.312380413685123,30.071579539984807],[31.312177774989291,30.071612990996879],[31.311940917767977,30.071666072848902],[31.311528749228902,30.07176536762508],[31.306511106014344,30.073539833109123],[31.305489852486634,30.073871655708121],[31.305040206589879,30.073985044903747],[31.304771163288734,30.074025637127217],[31.30457860549485,30.074047856803357],[31.304281963750096,30.074054196138317],[31.304117639005685,30.074056835127468],[31.303929070792471,30.074050475948738],[31.303709605489296,30.074027395049814],[31.303532611347666,30.074006811810776],[31.303307419501547,30.0739774966436],[31.303092246752158,30.073932076232204],[31.302833098857878,30.073863995030198],[31.302418066234797,30.07372697796497],[31.30148927800407,30.073396913637467],[31.30067774360834,30.073122047563054],[31.299766230136644,30.072831818871915],[31.29938140196041,30.072756648161334],[31.299103932514324,30.07271684282593],[31.298967891242608,30.07270555792244],[31.2988654706636,30.072702102921991],[31.298763402185152,30.072702624111351],[31.298642804445972,30.07269962656714],[31.29851893962789,30.072699382692516],[31.298362523733072,30.072708338851495],[31.29822569196449,30.072715364967529],[31.298092160471395,30.072732121152576],[31.297946400739377,30.072756561203263],[31.297779245569178,30.072786625599527],[31.297638290207008,30.072814368418019],[31.297469091844469,30.072857119571278],[31.297297158264591,30.072916440999691],[31.297146659255127,30.072962452025443],[31.29697207966937,30.073032332063928],[31.296803411570963,30.073103011177917],[31.296667314681734,30.073175973565355],[31.296490050236208,30.07327354973199],[31.296157104203076,30.07347642380256],[31.295882273322533,30.073689888717816],[31.294722331727865,30.074702588156953],[31.293220542011806,30.075996681725186],[31.292789771727051,30.076325666660715],[31.29261927609139,30.076433215710185],[31.292389125051674,30.076573284180192],[31.292148463011177,30.076697680692078],[31.292060562309253,30.07673570584997],[31.291929803067902,30.076787034244159],[31.291692033508287,30.076885399692269],[31.291456406344874,30.076967493415449],[31.29131118273207,30.077005200428673],[31.291061285123444,30.077072593388053],[31.290881962383423,30.07711159239885],[31.290668155816515,30.077145366109534],[31.290348593672853,30.077180973838122],[31.290057687910501,30.077197744785995],[31.289809103956788,30.077204449108752],[31.289519691172032,30.07719118167245],[31.289184499030924,30.077155786349273],[31.288917165050272,30.077118563408369],[31.288655199339306,30.077058653321224],[31.288361041006944,30.076975807797815],[31.288026856442507,30.076856502725857],[31.287783482396815,30.076753339337841],[31.287516218251781,30.076635445358352],[31.287202425273328,30.076463196571353],[31.286965879161187,30.076297124816481],[31.286695887997208,30.076105130807232],[31.286379244304488,30.075844358559372],[31.286110710745266,30.075523674879232],[31.285866357860833,30.07521046993643],[31.285549639451979,30.074688511985833],[31.285193039296249,30.074045199333533],[31.284970948724695,30.073737448684664],[31.284491897796148,30.073210069378472],[31.282895820596902,30.071461323922435],[31.281639465061499,30.070214486347204],[31.281407379847092,30.069984844083681],[31.279188620113043,30.067801712851004],[31.277713354516461,30.066345483155658],[31.276890061498523,30.065550742636482],[31.276838267989202,30.06550040395059],[31.276782698656486,30.065454266230894],[31.276723694004005,30.065412612731265],[31.276661613684475,30.065375698987271],[31.276596838636479,30.065343749235272],[31.276529764799815,30.065316959939178],[31.276460803209503,30.06529549437829],[31.276390373742554,30.06527948436997],[31.27634486985939,30.065272042314106],[31.27417747589632,30.064527574820687],[31.272792629313969,30.064042165453387],[31.269780232356009,30.063023755003716],[31.268787114186953,30.062661500849231],[31.268507254866307,30.062566703234936],[31.268229718280224,30.062465305034305],[31.267954661141566,30.062357363364995],[31.267682237002674,30.06224293801084],[31.267412599319123,30.062122094168924],[31.26714589840142,30.06199489880035],[31.266829107461866,30.061840585935183],[31.266514488075991,30.061681890790009],[31.266202103042321,30.061518842178899],[31.264907095051161,30.060848928416092],[31.264681760066711,30.060744807761399],[31.26445944488027,30.06063438832933],[31.264240325413915,30.060517754563051],[31.264024575339707,30.060395000801503],[31.263812365168583,30.060266224049496],[31.263603863271463,30.060131524893194],[31.263399234763416,30.059991011996736],[31.263198641629664,30.059844794885684],[31.261690064298836,30.05857416336648],[31.260561724358638,30.057604676247582],[31.260370306259965,30.057422788879471],[31.26017499569781,30.057245086671532],[31.259975885596759,30.057071652940774],[31.259773069947556,30.056902569214007],[31.259566641749078,30.056737914298406],[31.259356699214205,30.056577765265853],[31.259143339579744,30.056422195566704],[31.258209523872665,30.055779059632449],[31.25742949076329,30.05523703478887],[31.25678744362785,30.054770721759656],[31.256581355998112,30.054628063572487],[31.256476089183039,30.054554756034577],[31.256367887977788,30.054485852146449],[31.256256936980343,30.054421470738639],[31.256143425108455,30.054361720774679],[31.256027544515394,30.054306704043523],[31.255903247100719,30.054261533618774],[31.255777331912128,30.054221091929168],[31.255649980466167,30.054185436414929],[31.2555213713099,30.054154616357319],[31.251537616050388,30.05343399601961],[31.250840719136463,30.053296167268666],[31.250142953334148,30.05316280564448],[31.249955209169393,30.053129472552705],[31.249766710584172,30.053100710739461],[31.249577570353246,30.05307653433379],[31.249387897071582,30.053056959214114],[31.249242730990478,30.053046915026144],[31.249097248179364,30.053043968009284],[31.248951794915087,30.053048123675854],[31.248806717728346,30.053059373107235],[31.248662363467535,30.053077689345667],[31.248519073061889,30.053103028213517],[31.248432025572409,30.053128021824485],[31.248346011105863,30.053156369240032],[31.248261160076442,30.05318802618525],[31.248235630508926,30.053198353233295],[31.24820753238242,30.053209715208393],[31.248179424150742,30.053221061704512],[31.248151297804611,30.053232376374609],[31.24812314638751,30.053243641983329],[31.248094958763595,30.05325484304419],[31.248066727976411,30.053265962321852],[31.24803844600083,30.053276984371262],[31.24801010380661,30.053287891929422],[31.247981695458364,30.05329866867686],[31.247953210857208,30.053309299140849],[31.247640724413895,30.053413084074794],[31.247320496294126,30.05349713406337],[31.247279079258387,30.053506419056465],[31.247225736817651,30.053517723058771],[31.24717220552284,30.053528325283846],[31.247118481859207,30.053538130949214],[31.246794431950384,30.05357892844367],[31.246467162301315,30.05358772479083],[31.246467227952614,30.053585470964805],[31.246141192928171,30.053562176702204],[31.245820244613835,30.053507095871684],[31.245819922515928,30.053508187797323],[31.245250652854303,30.053345283659787],[31.243810751746068,30.052881683880869],[31.24365575978895,30.052831571807243],[31.243499260030703,30.052786392712843],[31.243341407219962,30.05274619196701],[31.243182360347504,30.052711009582982],[31.243022279487796,30.052680882882484],[31.242840172024867,30.052664441823282],[31.24265757231667,30.052654911413406],[31.24247474248331,30.052652305078428],[31.242291944819815,30.052656626323135],[31.242109442849138,30.052667867843223],[31.24192749813216,30.052686015993896],[31.241746371448208,30.052711042685583],[31.241566321631034,30.052742912586087],[31.241387608711523,30.052781581358296],[31.241210488813284,30.052826991080607],[31.241035217120075,30.052879078406733],[31.237566136696248,30.053986561614622],[31.232121299581014,30.05586305080023],[31.229697354479832,30.056772372290048],[31.229603235777304,30.056799666944592],[31.229511133254793,30.056833141037917],[31.229421450964523,30.056872643928738],[31.229334583997591,30.056918004104624],[31.229250915501904,30.056969021923877],[31.22917081041269,30.057025472237608],[31.229094622646997,30.057087108095548],[31.22902268790958,30.057153657040001],[31.228955321506763,30.057224827391902],[31.228892820484553,30.057300304670502],[31.228816601087615,30.057415598657546],[31.228735049485707,30.057600202755307],[31.228658169858875,30.057786799626445],[31.228586009941157,30.057975272632021],[31.228511984412584,30.058205297313521],[31.228431819903793,30.05843325428522],[31.228345574244784,30.058658981009682],[31.228253310452345,30.058882315018625],[31.228184620224397,30.059034752257595],[31.228109595422204,30.059184171799643],[31.228028367209362,30.0593303128508],[31.227941079131575,30.059472918392441],[31.227847886079829,30.059611735167493],[31.227748950030225,30.059746519938695],[31.227644446346158,30.059877035062545],[31.227534558545411,30.060003051125545],[31.227419481427155,30.06012434608424],[31.227299415871109,30.060240706097442],[31.227174575059305,30.060351925610306],[31.227045178189972,30.060457810878461],[31.226911451643112,30.060558172766179],[31.226773632951364,30.060652836724394],[31.226631963685911,30.060741634574956],[31.226486693491605,30.060824410880688],[31.226338079098159,30.060901020225447],[31.226186381225119,30.060971326270248],[31.222309032522432,30.062543104370288],[31.219073498740073,30.06408609592885],[31.215571874272612,30.065781998384178],[31.215538446348077,30.065798184427798],[31.215505011331945,30.065814360441745],[31.215471563228753,30.065830513713344],[31.21543809492513,30.065846636025931],[31.215404601462659,30.065862714680897],[31.215371071628486,30.065878738699197],[31.215337503494325,30.065894699934514],[31.215303887986124,30.065910583827922],[31.215270219027559,30.065926382176752],[31.215236490607069,30.065942083170352],[31.214953329395428,30.06606852471992],[31.21466584482441,30.066187359739104],[31.213298522455169,30.066716750447881],[31.208653979106256,30.068516198053405],[31.208644466697539,30.068519850552178],[31.208589325523359,30.06854091401064],[31.208534089091163,30.068561793896265],[31.20850984378442,30.068570814132229],[31.207459520683972,30.068976892757675],[31.206834404407928,30.069217992556545],[31.20675914682651,30.06924689902382],[31.205443655215774,30.069751054704245],[31.204272270087419,30.070198400989671],[31.203997466253366,30.070305811375373],[31.203990374897376,30.070308585360461],[31.203948063493602,30.070325388583424],[31.203905902615233,30.070342471736026],[31.203863935633098,30.070359903078273],[31.203822205934248,30.070377749968262],[31.203780756938254,30.070396077960154],[31.203739639340235,30.070414951805322],[31.203698903835306,30.070434436255223],[31.20369763338585,30.070432470076163],[31.203421002782758,30.070590217569372],[31.203171470907819,30.070779084712491],[31.203087561125866,30.070849364216727],[31.203008134885732,30.070924672639958],[31.202933491926387,30.071004725375506],[31.202863914718687,30.071089217731867],[31.202799669371998,30.071177832162615],[31.202740996431007,30.071270230922739],[31.202688119025368,30.071366064299895],[31.202641238753912,30.071464968753585],[31.202600532491715,30.071566571382395],[31.202566153508446,30.07167048542814],[31.202538233428069,30.071776316618042],[31.202516875957155,30.071883665785659],[31.202502165230051,30.071992126278122],[31.202494154368097,30.072101285604091],[31.202492874714977,30.072210730973438],[31.202498330667318,30.072320048324215],[31.202510502785451,30.072428822365232],[31.202529343546843,30.072536641931258],[31.202554782563709,30.07264309825014],[31.202586723438685,30.072747786704063],[31.202625042613306,30.072850313129646],[31.202669598848029,30.072950285827517],[31.202720220516117,30.073047329824295],[31.202776718260207,30.073141075316911],[31.202838875511649,30.073231165663042],[31.202906421930866,30.073313791558544],[31.202978438728849,30.073392552052141],[31.203054705182051,30.073467205028027],[31.20313498580073,30.073537521701915],[31.203219036502517,30.073603289412326],[31.203286524001118,30.073658556945318],[31.203372800323464,30.073725053315151],[31.203495998235677,30.073803586653252],[31.203664084217809,30.07390084209797],[31.204943550312088,30.074551393769887],[31.20517131434401,30.074670222797497],[31.206777980428456,30.07550844845326],[31.207921047242991,30.07608844202138],[31.208090814266853,30.076181180310179],[31.208219987090182,30.07625930634935],[31.208334497455382,30.076330320376048],[31.208436940651588,30.076399986967044],[31.208540643825724,30.076485111413081],[31.208629577490424,30.076569404687074],[31.208693832429056,30.07663825456607],[31.208749473374588,30.076703634312157],[31.208813676530838,30.076793213054561],[31.208884382308774,30.076913751986023],[31.208960193672354,30.077064605006292],[31.209033918169055,30.077229268841762],[31.209103897016348,30.077428759977696],[31.209203315638668,30.077747349594443],[31.209590049164301,30.078990043394782],[31.209789576156812,30.079655571176577],[31.209994028103758,30.080354968682041],[31.210071781097959,30.08060272533227],[31.210214846803975,30.081135599081616],[31.210331214831669,30.081492583951547],[31.210792483477796,30.08296611259599],[31.21193365898554,30.086647382285978],[31.212556438590408,30.088632110856754],[31.212775719423448,30.089205762012085],[31.213062020493268,30.090043788814338],[31.213106091898517,30.090205948585549],[31.213137219735557,30.090349800198034],[31.213154670270459,30.090477543238798],[31.213157767011047,30.090587676224771],[31.213152198246494,30.090731386886048],[31.213146464010865,30.090879392608954],[31.213122704077797,30.0910021153976],[31.213092304027853,30.091121543143021],[31.21304713624059,30.091252880618182],[31.212991165546111,30.091374990190523],[31.212928956854412,30.091504782162328],[31.212835834981728,30.091638767552968],[31.21270513728825,30.091796176871831],[31.212521543315656,30.091972507834093],[31.212415175332715,30.092040123370179],[31.212276745127213,30.092125153993027],[31.212180195989845,30.092178823673496],[31.212055782239855,30.092245828813137],[31.211921102748487,30.09230586784102],[31.211675672502899,30.092398375219702],[31.210848765009022,30.092627749951834],[31.210284779589458,30.092788751673623],[31.209842256109653,30.09293149039204],[31.208421802425004,30.093408521402036],[31.207692388197113,30.093661736698934],[31.204067056435246,30.094883367891772],[31.203455895314296,30.095096484718233],[31.202328004100409,30.095467398111658],[31.200772661376416,30.095991653142931],[31.199883943082906,30.096313769572145],[31.198105931001173,30.096906726913353],[31.196972384285246,30.097275054221974],[31.19504370189366,30.09787583243676],[31.194868047837087,30.097941129564468],[31.194690125549197,30.097999966933983],[31.19451017207853,30.098052262986453],[31.194328428378771,30.098097949751246],[31.194145136327691,30.09813696558728],[31.193960540752382,30.098169257917625],[31.193774890433577,30.098194785047674],[31.193588428867745,30.098213510624916],[31.193401408641961,30.098225411956594],[31.193214079133217,30.098230471720548],[31.193157296018704,30.098230506245521],[31.193100473787325,30.098230067442973],[31.192620058704055,30.098216698411793],[31.192419612398485,30.098210102085329],[31.192276529514096,30.098205393837087],[31.189769260213453,30.09812288975866],[31.189649395490846,30.098118946135056],[31.186317044546033,30.098009291578979],[31.186286071181879,30.09800827926054],[31.186255102313549,30.098007304890171],[31.186224138187619,30.098006411777906],[31.186193182261455,30.09800563786478],[31.186162238980259,30.09800502381216],[31.186131310714558,30.098004610252691],[31.186100404033539,30.098004435170406],[31.186069523382294,30.098004539226686],[31.186038678392475,30.098004963154487],[31.18600787457936,30.098005745825471],[31.185962391672447,30.098009951790697],[31.185915012980537,30.098014333655073],[31.185716928761146,30.0980326529168],[31.185602869335479,30.098046282562215],[31.185489850760145,30.09806683118385],[31.18537829156816,30.09809421975692],[31.185268607577356,30.0981283475673],[31.185161203625061,30.098169090292746],[31.185056479924313,30.09821629287282],[31.184954822464537,30.098269783811809],[31.184856610503925,30.098329362650937],[31.18476220497773,30.098394809732532],[31.184671960008064,30.098465880945586],[31.184586208266015,30.098542313838909],[31.184505267245232,30.098623825000974],[31.184429438208166,30.098710110947408],[31.184359000916995,30.09880085255913],[31.184294218836691,30.098895714251828],[31.184235329815458,30.098994342944792],[31.184182554300822,30.099096372685445],[31.184136087007705,30.099201426338414],[31.184096100079728,30.099309112922473],[31.184062741936096,30.099419033909939],[31.184036137287759,30.099530782324614],[31.184016383004231,30.09964394178234],[31.184003553151399,30.099758094680496],[31.183997695978089,30.099872816742977],[31.183998831741953,30.099987682403341],[31.184006957879269,30.100102265778613],[31.184122584272682,30.101356630770223],[31.18412516087923,30.101356450762367],[31.184242429365899,30.102656919112974],[31.184242431933725,30.102656948921744],[31.184384160864113,30.104194513044543],[31.184406978638979,30.104442053907807],[31.184473937900599,30.105168463647459]]]}},
{"type":"Feature","properties":{"Shape_Length":6083.470389581028},"geometry":{"type":"MultiLineString","coordinates":[[[31.208589325523359,30.06854091401064],[31.208534089091163,30.068561793896265],[31.20850984378442,30.068570814132229],[31.208139672977509,30.068690595970249],[31.207766119507728,30.068777069893777],[31.207611880632317,30.068799029905879],[31.207456827521817,30.068814194761202],[31.207301256349407,30.068822536017326],[31.207145470320192,30.068824037960322],[31.206989767226492,30.068818697435081],[31.206834449817872,30.068806523986687],[31.206679817455736,30.068787542453435],[31.206526166210633,30.06876178755444],[31.206373794954072,30.068729311190896],[31.206222997208283,30.068690174214449],[31.206074063106197,30.068644452769746],[31.205927281514011,30.068592235616467],[31.205782932771736,30.068533624030266],[31.205641298075054,30.068468729224083],[31.205502650060485,30.068397676730573],[31.205367255948797,30.068320604640586],[31.205235376556637,30.068237660882826],[31.20510726726835,30.068149006845957],[31.204983173985344,30.068054811909743],[31.204863338229799,30.067955258025908],[31.204747987843895,30.06785053778642],[31.204637349450344,30.06774085369139],[31.204531632913273,30.067626417034489],[31.203971765379706,30.067026903267596],[31.203958693408541,30.067012904288251],[31.203945622478042,30.066998905321913],[31.203932554727412,30.066984902788878],[31.203919493251398,30.066970897633652],[31.203906437029293,30.066956888940091],[31.203893390258028,30.066942874058842],[31.203880352937603,30.066928852989935],[31.203867327174638,30.066914823957667],[31.203854312985424,30.066900786060049],[31.203841314550608,30.066886737549755],[31.203759998486877,30.066798199332737],[31.203679321234628,30.06670921778192],[31.203666542371369,30.066695017974972],[31.203653778209148,30.066680808443238],[31.203641025620634,30.066666590046228],[31.203628285642843,30.066652362798141],[31.203615556152847,30.066638129376599],[31.203602833002606,30.066623889724937],[31.203590117196526,30.066609645661355],[31.203577405590995,30.066595398947324],[31.203564698202285,30.066581148680861],[31.203551990817186,30.066566898413281],[31.203165660258936,30.066133596259878],[31.203146555501423,30.066112265317827],[31.203127443346279,30.066090942392108],[31.203108312321213,30.066069630934766],[31.203089152962772,30.066048338034253],[31.203069955823828,30.066027069877016],[31.20305071354753,30.066005831775854],[31.203031415633429,30.065984630804966],[31.203012054692113,30.065963474081201],[31.202992620255724,30.065942366874747],[31.202973106927374,30.065921320840758],[31.202874248368399,30.065816643174557],[31.202773154314041,30.065713594972671],[31.202753215525583,30.065693195402083],[31.202732683801422,30.065672832832298],[31.202712091770081,30.065652536199817],[31.202691440843534,30.065632284772605],[31.20267073729271,30.065612075929728],[31.202649990629965,30.065591899876704],[31.202629210269848,30.065571752231119],[31.202608403618083,30.065551624974162],[31.202587581158827,30.065531511933571],[31.202566750297823,30.065511405090575],[31.202558625831148,30.065503579925856],[31.201622896515754,30.064596054036759],[31.201528496065915,30.064484527137967],[31.20143856884069,30.064369364049462],[31.201353254772627,30.06425074172741],[31.201272687390642,30.064128846964735],[31.201196989802746,30.064003869118178],[31.201115351151412,30.0638632329362],[31.201039320245439,30.063719488587672],[31.200969015432435,30.06357285874763],[31.200904543553033,30.063423571346465],[31.200846009306595,30.063271857893554],[31.200793500700964,30.063117955082536],[31.200747100508398,30.062962102241361],[31.200706880043938,30.062804541247075],[31.200672902292816,30.06264551566634],[31.200645219738828,30.062485276139107],[31.200623875613722,30.062324068666602],[31.200608902648241,30.062162146323267],[31.200600326362821,30.061999759377326],[31.200598156706842,30.061837158785014],[31.200602400420806,30.061674600871214],[31.201374930328033,30.055786275809819],[31.201519842534456,30.054720384842955],[31.201526831098793,30.054667873196806],[31.201533718202388,30.054615351139407],[31.201540403495688,30.054562804666773],[31.201546787503162,30.054510228809214],[31.201552769794151,30.054457614072781],[31.201558246713397,30.054404957235153],[31.201563118802301,30.054352252424668],[31.201567284382001,30.054299501859393],[31.201570640753229,30.054246706841226],[31.201567368493937,30.05411147907898],[31.201557277172128,30.053976589297811],[31.201540393816039,30.053842379812021],[31.201516761006651,30.053709193147661],[31.201486440069448,30.053577367574999],[31.201449505824538,30.053447240645767],[31.201406055011681,30.053319142090505],[31.201356195823486,30.053193399088901],[31.20130005837165,30.053070330999603],[31.201237782195332,30.052950251896171],[31.201169526678491,30.052833468002884],[31.201095467971697,30.052720275848408],[31.201015792721829,30.052610964886689],[31.200930704390931,30.05250581217021],[31.200840419059745,30.052405084999375],[31.200745167484982,30.052309041853004],[31.197047484658153,30.048225887076775],[31.193875334741357,30.044432776767152],[31.193781479784437,30.044330326872977],[31.19369301873326,30.044223185433719],[31.193610187037951,30.044111635385697],[31.193533203344,30.043995971163127],[31.193462270529146,30.043876498712219],[31.193397578764795,30.04375353823983],[31.193339297467571,30.043627410569417],[31.193287582278675,30.0434984525745],[31.193242568019567,30.043367005352994],[31.193204375916963,30.043233416130668],[31.193173107366096,30.043098039077769],[31.193148842959875,30.042961231686569],[31.193131648627901,30.042823359366846],[31.193121569645569,30.042684782732405],[31.193118633466312,30.042545872977641],[31.193122844832985,30.042406995570502],[31.193134197018836,30.042268519429069],[31.193152657460665,30.042130808604085],[31.193178175889557,30.041994231413174],[31.193210686650303,30.041859146939139],[31.193250105427833,30.041725914007433],[31.193296324162006,30.041594885702935],[31.193349222484951,30.041466407722819],[31.193528256314636,30.041174114152472],[31.193703704052805,30.040879654407266],[31.193875541103871,30.040583070568871],[31.194043739648603,30.040284410990168],[31.194322703624504,30.039794606218202],[31.194331903309763,30.039778452691301],[31.194341097824655,30.039762298190407],[31.19435028723462,30.03974613910751],[31.194359464282559,30.039729975342958],[31.194368626944108,30.039713804162286],[31.194377772125453,30.039697624620761],[31.194386893622575,30.039681435730984],[31.194395991484598,30.039665234786948],[31.194405058454411,30.039649021688991],[31.194414092507664,30.039632793702673],[31.194544560091224,30.039388630614219],[31.194666610079128,30.039141194907966],[31.194674480445215,30.039124515147531],[31.194682314752299,30.039107822260267],[31.194690120208342,30.039091119051832],[31.194697897817392,30.039074407340468],[31.194705651726331,30.039057687183096],[31.195019314337092,30.03839629255517],[31.195328063903723,30.037732591148526],[31.195631885331046,30.037066618881468],[31.195930760415411,30.036398411629261],[31.19622467194246,30.03572800798711],[31.196315639877778,30.035520807657917],[31.197075428107055,30.033790217822784],[31.197082823580089,30.033773374384761],[31.197090222176826,30.033756530086823],[31.197097624868594,30.033739688551179],[31.197105035802068,30.033722849834675],[31.197112457034244,30.033706014867764],[31.197119889585451,30.033689184566644],[31.197127338622685,30.033672359904372],[31.197134806202932,30.033655541811367],[31.197142294399523,30.033638730316078],[31.197149804216462,30.033621927236695],[31.197289413685681,30.033320882212969],[31.197437273695169,30.03302283542028],[31.19744572602745,30.033006372747643],[31.197454199930718,30.032989921196791],[31.197462694466292,30.032973475341443],[31.197471206491521,30.032957036942978],[31.197479733965739,30.032940604168974],[31.197488273795287,30.032924176074768],[31.197496824976156,30.032907750842178],[31.197505383345387,30.032891329316353],[31.197513945841983,30.032874908748681],[31.197522512465934,30.032858489139095],[31.198057519185223,30.031832986982206],[31.19897554336325,30.030073319697561],[31.198988385504968,30.030048706695251],[31.199001239981762,30.030024099273721],[31.199014118098663,30.029999503001179],[31.199121076013206,30.02981102941482],[31.199232613818946,30.029625228587619],[31.199348666195373,30.029442214197001],[31.199469159628666,30.029262094394664],[31.199594025838874,30.029084974697131],[31.199723188173419,30.028910965017367],[31.199856570112093,30.028740168052241],[31.199975202057885,30.028562545790553],[31.200088584075463,30.028381528641031],[31.200196620097707,30.02819726958494],[31.200299216002829,30.028009928847752],[31.200396285996934,30.027819664964028],[31.20048774524361,30.027626640992374],[31.200573516099734,30.027431023698213],[31.200653525070788,30.027232979903349],[31.200727703798439,30.027032679205956],[31.200795988040102,30.026830293064513],[31.200858319742053,30.026625994825945],[31.200914646002659,30.026419959711532],[31.200964916999059,30.026212364788432],[31.201215768847888,30.025429990225881],[31.201617769110538,30.024176168215824],[31.201612775869865,30.02417495591952],[31.201903896605959,30.02326692821212],[31.202370523981848,30.021811480708546]]]}}
]
}
